{
  "type": "FeatureCollection",
  "metadata": {
    "license": "CC BY-NC-SA 4.0",
    "attribution": "Illustrative historical-redlining sample for the swelter demo network.",
    "source": "Illustrative sample placed on the synthetic demo network's published grid cells. NOT a real HOLC determination for this fictional location. A real deployment replaces this with actual digitized HOLC grades for its jurisdiction from Mapping Inequality (only cities HOLC surveyed in 1935-1940 are covered — many places have no HOLC map at all, and that absence should be shown as 'no data', never as an assumed grade) — see docs/adr/0018-exposure-brief-and-equity-context.md.",
    "last_verified": "2026-07-09"
  },
  "features": [
    {
      "type": "Feature",
      "geometry": { "type": "Point", "coordinates": [-121.515433, 38.567867] },
      "properties": {
        "cell_id": "38.567867,-121.515433",
        "holc_grade": "D",
        "notes": "Illustrative grade only — this demo network's coordinates are synthetic, not a real digitized HOLC area.",
        "source": "Illustrative sample (swelter demo) — real source: Nelson, Robert K., LaDale Winling, et al., \"Mapping Inequality: Redlining in New Deal America,\" ed. Robert K. Nelson and Edward L. Ayers, American Panorama: An Atlas of United States History (Digital Scholarship Lab, University of Richmond), 2023",
        "source_url": "https://dsl.richmond.edu/panorama/redlining/",
        "last_verified": "2026-07-09"
      }
    },
    {
      "type": "Feature",
      "geometry": { "type": "Point", "coordinates": [-121.512211, 38.567867] },
      "properties": {
        "cell_id": "38.567867,-121.512211",
        "holc_grade": "C",
        "notes": "Illustrative grade only — this demo network's coordinates are synthetic, not a real digitized HOLC area.",
        "source": "Illustrative sample (swelter demo) — real source: Nelson, Robert K., LaDale Winling, et al., \"Mapping Inequality: Redlining in New Deal America,\" ed. Robert K. Nelson and Edward L. Ayers, American Panorama: An Atlas of United States History (Digital Scholarship Lab, University of Richmond), 2023",
        "source_url": "https://dsl.richmond.edu/panorama/redlining/",
        "last_verified": "2026-07-09"
      }
    },
    {
      "type": "Feature",
      "geometry": { "type": "Point", "coordinates": [-121.510109, 38.567867] },
      "properties": {
        "cell_id": "38.567867,-121.510109",
        "holc_grade": "B",
        "notes": "Illustrative grade only — this demo network's coordinates are synthetic, not a real digitized HOLC area.",
        "source": "Illustrative sample (swelter demo) — real source: Nelson, Robert K., LaDale Winling, et al., \"Mapping Inequality: Redlining in New Deal America,\" ed. Robert K. Nelson and Edward L. Ayers, American Panorama: An Atlas of United States History (Digital Scholarship Lab, University of Richmond), 2023",
        "source_url": "https://dsl.richmond.edu/panorama/redlining/",
        "last_verified": "2026-07-09"
      }
    },
    {
      "type": "Feature",
      "geometry": { "type": "Point", "coordinates": [-121.506912, 38.567867] },
      "properties": {
        "cell_id": "38.567867,-121.506912",
        "holc_grade": "C",
        "notes": "Illustrative grade only — this demo network's coordinates are synthetic, not a real digitized HOLC area.",
        "source": "Illustrative sample (swelter demo) — real source: Nelson, Robert K., LaDale Winling, et al., \"Mapping Inequality: Redlining in New Deal America,\" ed. Robert K. Nelson and Edward L. Ayers, American Panorama: An Atlas of United States History (Digital Scholarship Lab, University of Richmond), 2023",
        "source_url": "https://dsl.richmond.edu/panorama/redlining/",
        "last_verified": "2026-07-09"
      }
    },
    {
      "type": "Feature",
      "geometry": { "type": "Point", "coordinates": [-121.503915, 38.567867] },
      "properties": {
        "cell_id": "38.567867,-121.503915",
        "holc_grade": "A",
        "notes": "Illustrative grade only — this demo network's coordinates are synthetic, not a real digitized HOLC area.",
        "source": "Illustrative sample (swelter demo) — real source: Nelson, Robert K., LaDale Winling, et al., \"Mapping Inequality: Redlining in New Deal America,\" ed. Robert K. Nelson and Edward L. Ayers, American Panorama: An Atlas of United States History (Digital Scholarship Lab, University of Richmond), 2023",
        "source_url": "https://dsl.richmond.edu/panorama/redlining/",
        "last_verified": "2026-07-09"
      }
    }
  ]
}
