{"type":"Feature","properties":{"name":"California","geoid":"06","vintage":"2025-01-01","source":"U.S. Census Bureau TIGERweb States","source_url":"https://tigerweb.geo.census.gov/arcgis/rest/services/TIGERweb/State_County/MapServer/8","retrieved":"2026-07-09","simplification_degrees":0.0002,"license":"U.S. government work; public domain in the United States"},"geometry":{"type":"MultiPolygon","coordinates":[[[[-119.99987,41.18397],[-119.99976,41.23606],[-120.00007,41.24976],[-119.99947,41.49989],[-119.99905,41.52181],[-119.99829,41.61882],[-119.99886,41.62494],[-119.9987,41.72063],[-119.9983,41.74992],[-119.99928,41.87489],[-119.99923,41.99494],[-120.17892,41.99456],[-120.23986,41.9935],[-120.2565,41.99295],[-120.28405,41.99277],[-120.28642,41.99306],[-120.32602,41.99314],[-120.32639,41.99259],[-120.49114,41.99363],[-120.60298,41.99298],[-120.66212,41.99321],[-120.70047,41.99382],[-120.75931,41.99365],[-120.79812,41.99395],[-120.93452,41.99363],[-120.95406,41.99317],[-120.99008,41.99306],[-121.02206,41.9933],[-121.07252,41.99514],[-121.10973,41.99564],[-121.16848,41.99718],[-121.29021,41.99744],[-121.32881,41.9968],[-121.34491,41.99621],[-121.56478,41.99875],[-121.89942,42.00345],[-121.93983,42.00381],[-121.95753,42.00348],[-121.99613,42.00389],[-122.03456,42.0047],[-122.04822,42.00539],[-122.12584,42.00624],[-122.14511,42.00657],[-122.16457,42.00731],[-122.26134,42.00762],[-122.37805,42.0095],[-122.39727,42.00871],[-122.41664,42.00838],[-122.5153,42.00805],[-122.54999,42.00751],[-122.62532,42.00514],[-122.70279,42.00422],[-122.87323,42.00399],[-122.91295,42.00356],[-123.044,42.00308],[-123.06288,42.00482],[-123.08094,42.00506],[-123.12516,42.00816],[-123.14574,42.00876],[-123.18392,42.00579],[-123.34695,41.99928],[-123.44618,42.00063],[-123.5642,42.00071],[-123.62402,41.99977],[-123.65721,41.99509],[-123.72817,41.99706],[-123.81091,41.99516],[-123.83448,41.99605],[-123.99325,41.99603],[-124.05771,41.99635],[-124.08797,41.99681],[-124.102,41.99669],[-124.10278,41.99703],[-124.10456,41.99709],[-124.14158,41.99726],[-124.2116,41.99846],[-124.32883,41.99833],[-124.31794,41.99464],[-124.30699,41.99291],[-124.30118,41.98298],[-124.2946,41.97547],[-124.28858,41.96956],[-124.28727,41.96397],[-124.28477,41.95683],[-124.28781,41.95179],[-124.28993,41.94543],[-124.29165,41.93734],[-124.29194,41.9285],[-124.28994,41.92006],[-124.28569,41.91292],[-124.28066,41.90701],[-124.27612,41.90305],[-124.27638,41.8989],[-124.28073,41.87484],[-124.27965,41.87484],[-124.28503,41.85949],[-124.28925,41.86014],[-124.298,41.86067],[-124.30447,41.86015],[-124.31194,41.85879],[-124.32998,41.87475],[-124.33298,41.877],[-124.33861,41.87979],[-124.34765,41.88315],[-124.35656,41.88514],[-124.3652,41.88657],[-124.37621,41.887],[-124.38879,41.88676],[-124.40124,41.88559],[-124.41132,41.88206],[-124.41865,41.87484],[-124.42233,41.87229],[-124.42611,41.86878],[-124.43092,41.86291],[-124.43502,41.85651],[-124.43772,41.84932],[-124.44071,41.83874],[-124.44041,41.8312],[-124.43891,41.8245],[-124.43503,41.81658],[-124.42918,41.80973],[-124.4224,41.80371],[-124.41753,41.80002],[-124.41423,41.793],[-124.41076,41.78831],[-124.40572,41.78314],[-124.39951,41.77786],[-124.39205,41.77238],[-124.38437,41.76823],[-124.3762,41.76557],[-124.3762,41.76463],[-124.36919,41.76341],[-124.36551,41.75967],[-124.36104,41.75595],[-124.33061,41.73379],[-124.3137,41.72749],[-124.3003,41.72414],[-124.29191,41.71809],[-124.27806,41.70967],[-124.26242,41.70186],[-124.24947,41.69696],[-124.24193,41.69501],[-124.23686,41.69464],[-124.22986,41.6897],[-124.2226,41.68527],[-124.21171,41.68119],[-124.20855,41.67382],[-124.21,41.66932],[-124.21178,41.66191],[-124.21182,41.6527],[-124.21049,41.64946],[-124.21142,41.64169],[-124.20978,41.6352],[-124.20739,41.6293],[-124.20134,41.6194],[-124.19583,41.61316],[-124.19011,41.60819],[-124.19053,41.59874],[-124.18919,41.59178],[-124.18713,41.58897],[-124.18827,41.58365],[-124.18873,41.57896],[-124.18834,41.574],[-124.18499,41.56577],[-124.17996,41.55833],[-124.17227,41.55098],[-124.16446,41.54524],[-124.16049,41.54341],[-124.16011,41.52939],[-124.15794,41.51896],[-124.15357,41.51075],[-124.15182,41.50821],[-124.1513,41.49984],[-124.14413,41.48688],[-124.13906,41.47293],[-124.1365,41.46427],[-124.13691,41.44682],[-124.13632,41.44182],[-124.13563,41.43883],[-124.13437,41.4347],[-124.13323,41.43231],[-124.13383,41.43007],[-124.13478,41.42336],[-124.13691,41.40287],[-124.13958,41.38641],[-124.13997,41.38182],[-124.14406,41.38412],[-124.14841,41.38599],[-124.15419,41.38763],[-124.16591,41.3896],[-124.17656,41.39035],[-124.18124,41.39014],[-124.1886,41.38927],[-124.1978,41.38719],[-124.20651,41.38472],[-124.21201,41.38239],[-124.21922,41.3783],[-124.22437,41.37484],[-124.23109,41.36886],[-124.23517,41.36383],[-124.23819,41.35871],[-124.24036,41.3528],[-124.24242,41.3433],[-124.24229,41.34199],[-124.24267,41.33917],[-124.24216,41.33262],[-124.24019,41.32596],[-124.23821,41.32145],[-124.23454,41.31575],[-124.23139,41.31231],[-124.22509,41.30668],[-124.22003,41.30299],[-124.21226,41.29883],[-124.20492,41.29557],[-124.19233,41.29199],[-124.18663,41.29129],[-124.17798,41.29122],[-124.17174,41.29163],[-124.1634,41.29317],[-124.1607,41.28929],[-124.1644,41.28215],[-124.16658,41.27565],[-124.16925,41.27075],[-124.17332,41.261],[-124.17516,41.25318],[-124.17554,41.2472],[-124.17513,41.24255],[-124.17617,41.23937],[-124.17637,41.23715],[-124.18484,41.21738],[-124.18779,41.20956],[-124.19065,41.2014],[-124.19553,41.18458],[-124.20312,41.18344],[-124.20669,41.18241],[-124.21142,41.18092],[-124.21942,41.17769],[-124.23149,41.17094],[-124.23763,41.16596],[-124.24027,41.16352],[-124.24251,41.16083],[-124.24431,41.15832],[-124.24724,41.15282],[-124.24919,41.14718],[-124.25119,41.13756],[-124.25198,41.13605],[-124.25247,41.13407],[-124.2519,41.12867],[-124.25119,41.12739],[-124.251,41.12533],[-124.24916,41.12016],[-124.25033,41.11442],[-124.25064,41.11029],[-124.25035,41.10323],[-124.24959,41.09903],[-124.24743,41.09222],[-124.24445,41.08807],[-124.23957,41.08286],[-124.2385,41.07778],[-124.23721,41.07384],[-124.23472,41.06959],[-124.2312,41.0655],[-124.22993,41.05461],[-124.22821,41.04902],[-124.22708,41.04662],[-124.22402,41.04129],[-124.22227,41.03903],[-124.21814,41.03426],[-124.2151,41.03142],[-124.21364,41.02677],[-124.21234,41.0238],[-124.20946,41.01891],[-124.20498,41.01364],[-124.20005,41.00977],[-124.19639,41.00753],[-124.19078,41.00453],[-124.18269,41.00131],[-124.18979,40.97405],[-124.1945,40.9617],[-124.19762,40.95053],[-124.21496,40.9064],[-124.22111,40.89243],[-124.2255,40.88359],[-124.23047,40.87485],[-124.23262,40.86929],[-124.24304,40.85289],[-124.24631,40.84696],[-124.25693,40.83316],[-124.26578,40.82008],[-124.28018,40.79993],[-124.28658,40.7959],[-124.29266,40.78809],[-124.29699,40.78096],[-124.29834,40.77548],[-124.29933,40.76848],[-124.31145,40.74985],[-124.31995,40.73888],[-124.32742,40.72772],[-124.33411,40.71898],[-124.3429,40.70883],[-124.3608,40.68096],[-124.36888,40.66971],[-124.37617,40.65733],[-124.39645,40.62485],[-124.40337,40.61317],[-124.412,40.59702],[-124.41983,40.57713],[-124.42719,40.56208],[-124.43482,40.54865],[-124.44768,40.52971],[-124.45187,40.51561],[-124.45289,40.49985],[-124.45258,40.49798],[-124.45256,40.49308],[-124.45595,40.48405],[-124.45892,40.4792],[-124.46579,40.47001],[-124.47065,40.46593],[-124.47589,40.45976],[-124.47916,40.45264],[-124.482,40.44032],[-124.48054,40.42849],[-124.47862,40.4221],[-124.47244,40.41282],[-124.46347,40.40164],[-124.44471,40.37641],[-124.4425,40.37423],[-124.43271,40.36762],[-124.42946,40.36491],[-124.42806,40.36178],[-124.42774,40.35759],[-124.42795,40.33882],[-124.42711,40.3357],[-124.42544,40.33161],[-124.42021,40.32258],[-124.41854,40.31875],[-124.41828,40.31429],[-124.4195,40.30882],[-124.42195,40.30213],[-124.42462,40.29696],[-124.4279,40.2888],[-124.42915,40.26692],[-124.42822,40.25812],[-124.42673,40.24986],[-124.42129,40.2371],[-124.41103,40.22527],[-124.40315,40.218],[-124.39278,40.2098],[-124.37925,40.20287],[-124.37616,40.20053],[-124.36867,40.19323],[-124.33369,40.16717],[-124.32187,40.16019],[-124.30993,40.15361],[-124.28783,40.13768],[-124.27746,40.13473],[-124.2721,40.13365],[-124.2623,40.12486],[-124.25771,40.12151],[-124.24724,40.1109],[-124.2312,40.09338],[-124.21795,40.08645],[-124.20475,40.08149],[-124.16892,40.07038],[-124.15665,40.06589],[-124.15376,40.06354],[-124.14629,40.05578],[-124.1441,40.0524],[-124.14509,40.0409],[-124.14543,40.029],[-124.14533,40.02417],[-124.14411,40.01817],[-124.14109,40.01097],[-124.13711,40.00471],[-124.13231,39.99987],[-124.13325,39.99987],[-124.12614,39.99357],[-124.12277,39.98874],[-124.11521,39.9824],[-124.10858,39.97884],[-124.09638,39.97502],[-124.08632,39.97308],[-124.0786,39.97226],[-124.07428,39.96811],[-124.06358,39.95662],[-124.05113,39.94566],[-124.04769,39.94096],[-124.04139,39.93635],[-124.03536,39.93107],[-124.02893,39.92378],[-124.02346,39.91566],[-124.0162,39.9074],[-124.00964,39.89375],[-124.00545,39.88929],[-124.00114,39.88617],[-123.99176,39.8811],[-123.98679,39.87917],[-123.98517,39.87782],[-123.98295,39.87678],[-123.98075,39.87228],[-123.97943,39.86825],[-123.97854,39.86362],[-123.97598,39.85798],[-123.97348,39.85356],[-123.97006,39.84925],[-123.9681,39.84613],[-123.96625,39.8445],[-123.9575,39.83174],[-123.9536,39.82699],[-123.94919,39.82261],[-123.93859,39.81494],[-123.93197,39.81135],[-123.92396,39.8079],[-123.92048,39.80486],[-123.91053,39.79957],[-123.90581,39.78827],[-123.90238,39.78187],[-123.90097,39.78047],[-123.90109,39.7727],[-123.90264,39.76832],[-123.90402,39.75708],[-123.90323,39.74988],[-123.90029,39.73929],[-123.89988,39.73476],[-123.89836,39.72501],[-123.89574,39.71141],[-123.89322,39.70478],[-123.89037,39.70001],[-123.88031,39.68909],[-123.87391,39.68452],[-123.86744,39.68069],[-123.8618,39.67684],[-123.85718,39.67469],[-123.85732,39.67231],[-123.85688,39.66438],[-123.856,39.65705],[-123.85431,39.65],[-123.85235,39.64634],[-123.85192,39.64276],[-123.85164,39.62759],[-123.85308,39.6146],[-123.85343,39.60355],[-123.85252,39.59237],[-123.84939,39.57829],[-123.84083,39.56035],[-123.83965,39.55647],[-123.83657,39.5526],[-123.83465,39.54919],[-123.83701,39.54326],[-123.84662,39.52487],[-123.85265,39.51485],[-123.85714,39.51414],[-123.86357,39.51127],[-123.86783,39.5083],[-123.87121,39.50463],[-123.87252,39.50239],[-123.87513,39.49418],[-123.87537,39.49036],[-123.87516,39.48532],[-123.87438,39.48256],[-123.87613,39.47996],[-123.87613,39.47899],[-123.8777,39.47622],[-123.87822,39.47337],[-123.88113,39.46773],[-123.8874,39.45304],[-123.88794,39.4481],[-123.88889,39.44394],[-123.88927,39.43462],[-123.8871,39.42576],[-123.88851,39.41942],[-123.8913,39.41324],[-123.89232,39.40976],[-123.89245,39.40704],[-123.8921,39.40144],[-123.89064,39.39502],[-123.89045,39.3901],[-123.89147,39.38931],[-123.89289,39.38684],[-123.89587,39.3801],[-123.89681,39.37489],[-123.89605,39.36393],[-123.89434,39.35692],[-123.89522,39.35242],[-123.89494,39.34835],[-123.89308,39.33749],[-123.88642,39.32503],[-123.88102,39.31935],[-123.8816,39.31021],[-123.88018,39.3042],[-123.87613,39.29159],[-123.87613,39.29045],[-123.87021,39.28066],[-123.86908,39.27588],[-123.86904,39.27305],[-123.86736,39.26676],[-123.86523,39.26254],[-123.86448,39.25796],[-123.86341,39.25476],[-123.86077,39.2499],[-123.85973,39.24682],[-123.85543,39.2414],[-123.85425,39.2384],[-123.85009,39.2314],[-123.85022,39.22876],[-123.84919,39.22206],[-123.84839,39.21873],[-123.84712,39.21567],[-123.84682,39.20812],[-123.84643,39.20583],[-123.8458,39.20446],[-123.84602,39.1998],[-123.84395,39.19537],[-123.84132,39.19128],[-123.84013,39.19021],[-123.84077,39.18733],[-123.83888,39.18334],[-123.83106,39.17204],[-123.82716,39.16706],[-123.81433,39.14687],[-123.80921,39.14104],[-123.80746,39.12723],[-123.80633,39.1249],[-123.80553,39.1249],[-123.80472,39.1216],[-123.80161,39.11591],[-123.7964,39.10856],[-123.7947,39.10679],[-123.79386,39.10418],[-123.79232,39.10144],[-123.78847,39.09605],[-123.78611,39.09214],[-123.78342,39.08178],[-123.78227,39.0785],[-123.77831,39.06973],[-123.77647,39.06702],[-123.77264,39.06319],[-123.76834,39.05029],[-123.76458,39.0439],[-123.76197,39.04109],[-123.76173,39.03425],[-123.76093,39.03062],[-123.76147,39.02867],[-123.76162,39.02565],[-123.76116,39.0225],[-123.76157,39.01598],[-123.76118,39.01505],[-123.76315,39.00869],[-123.76918,39.00788],[-123.77661,39.00502],[-123.78542,38.99991],[-123.79722,38.98986],[-123.80607,38.97704],[-123.80986,38.96122],[-123.80651,38.94046],[-123.79845,38.92747],[-123.78468,38.89373],[-123.76713,38.8779],[-123.76203,38.87491],[-123.75113,38.86739],[-123.73792,38.85744],[-123.7253,38.84412],[-123.71781,38.82792],[-123.70651,38.81772],[-123.6926,38.81032],[-123.6827,38.79701],[-123.66396,38.78554],[-123.66004,38.78426],[-123.65265,38.77497],[-123.64125,38.76439],[-123.63261,38.75817],[-123.62612,38.75465],[-123.6152,38.74991],[-123.60706,38.74857],[-123.59196,38.74023],[-123.58691,38.72808],[-123.578,38.71758],[-123.56609,38.70902],[-123.54946,38.70014],[-123.53189,38.69342],[-123.52301,38.68752],[-123.51058,38.68089],[-123.5039,38.67291],[-123.50112,38.67052],[-123.49867,38.66894],[-123.49508,38.66066],[-123.48854,38.65147],[-123.47737,38.64223],[-123.47052,38.63858],[-123.46562,38.62885],[-123.46037,38.62271],[-123.45616,38.61479],[-123.44839,38.60629],[-123.43715,38.59789],[-123.43049,38.59167],[-123.42539,38.58284],[-123.41417,38.57152],[-123.405,38.56282],[-123.39416,38.55394],[-123.3891,38.54615],[-123.38457,38.53702],[-123.37612,38.52681],[-123.36093,38.5102],[-123.34853,38.50424],[-123.33092,38.50242],[-123.33073,38.49991],[-123.32912,38.49991],[-123.3274,38.49927],[-123.32381,38.49861],[-123.31735,38.48864],[-123.30674,38.47868],[-123.28969,38.46758],[-123.28317,38.46496],[-123.28133,38.4645],[-123.2803,38.46346],[-123.26919,38.45757],[-123.25112,38.45208],[-123.24199,38.45053],[-123.23639,38.45043],[-123.23475,38.44842],[-123.22801,38.44423],[-123.22022,38.44195],[-123.21138,38.43082],[-123.20407,38.4239],[-123.20268,38.42099],[-123.19616,38.41011],[-123.18846,38.40286],[-123.17997,38.39746],[-123.17171,38.39408],[-123.17068,38.39267],[-123.1681,38.39044],[-123.16476,38.38834],[-123.15985,38.37492],[-123.15574,38.3684],[-123.15049,38.36169],[-123.14629,38.35761],[-123.14273,38.3553],[-123.14272,38.35416],[-123.14001,38.3506],[-123.13431,38.34579],[-123.13832,38.33719],[-123.141,38.32745],[-123.14133,38.31134],[-123.13452,38.29626],[-123.12612,38.28728],[-123.12377,38.28579],[-123.12347,38.28431],[-123.11959,38.2771],[-123.11097,38.26726],[-123.10344,38.26232],[-123.10096,38.26136],[-123.05196,38.21585],[-123.04962,38.21429],[-123.04892,38.21147],[-123.04582,38.20493],[-123.04039,38.19836],[-123.03894,38.19753],[-123.0379,38.19249],[-123.0348,38.18602],[-123.03292,38.18297],[-123.03134,38.18146],[-123.03153,38.1781],[-123.03048,38.17246],[-123.02721,38.16417],[-123.02306,38.15817],[-123.01973,38.15419],[-123.01482,38.14913],[-123.0237,38.12492],[-123.0638,38.03649],[-123.06725,38.03402],[-123.0747,38.0272],[-123.0812,38.01897],[-123.08295,38.01533],[-123.08513,38.00843],[-123.08566,37.99993],[-123.08461,37.98809],[-123.08388,37.98337],[-123.07939,37.97194],[-123.07419,37.96489],[-123.06797,37.95867],[-123.05903,37.95284],[-123.05008,37.94802],[-123.04112,37.94547],[-123.03042,37.94331],[-123.02251,37.94206],[-123.01023,37.94134],[-122.99313,37.94109],[-122.97643,37.94015],[-122.96807,37.94027],[-122.95322,37.94109],[-122.93797,37.94444],[-122.93193,37.94667],[-122.92621,37.95063],[-122.91917,37.95484],[-122.9134,37.95977],[-122.90924,37.96464],[-122.90549,37.97057],[-122.90228,37.97739],[-122.89742,37.97575],[-122.88929,37.97411],[-122.88256,37.96888],[-122.87906,37.96658],[-122.8761,37.96634],[-122.87519,37.96479],[-122.87272,37.96248],[-122.86866,37.95949],[-122.86396,37.95723],[-122.8625,37.95527],[-122.85958,37.95225],[-122.85457,37.94763],[-122.85046,37.94559],[-122.84608,37.9316],[-122.84428,37.92734],[-122.84213,37.92332],[-122.8389,37.91891],[-122.8298,37.91033],[-122.82537,37.90709],[-122.81879,37.90324],[-122.81413,37.90108],[-122.78903,37.89376],[-122.78704,37.88812],[-122.78547,37.88528],[-122.77914,37.87613],[-122.77371,37.87085],[-122.76677,37.8658],[-122.7579,37.86048],[-122.75247,37.8577],[-122.74026,37.85517],[-122.73067,37.85006],[-122.72431,37.84768],[-122.71585,37.84563],[-122.70468,37.8443],[-122.69199,37.84501],[-122.67565,37.84852],[-122.66742,37.84173],[-122.65561,37.83582],[-122.64316,37.83045],[-122.63247,37.82781],[-122.62958,37.82437],[-122.62611,37.8216],[-122.61229,37.81522],[-122.58817,37.78936],[-122.58473,37.77916],[-122.58128,37.7602],[-122.5675,37.63919],[-122.57956,37.61148],[-122.58645,37.59253],[-122.58818,37.57941],[-122.58645,37.56191],[-122.57956,37.54587],[-122.57496,37.49994],[-122.57406,37.49851],[-122.57278,37.48918],[-122.57096,37.48447],[-122.56809,37.47921],[-122.56388,37.47427],[-122.55952,37.46987],[-122.55296,37.46403],[-122.547,37.45786],[-122.53734,37.45074],[-122.5276,37.4461],[-122.51459,37.44252],[-122.50989,37.44155],[-122.50997,37.4368],[-122.50935,37.4314],[-122.50773,37.42271],[-122.5059,37.41709],[-122.50354,37.4119],[-122.48745,37.38833],[-122.46701,37.34989],[-122.46587,37.34124],[-122.47609,37.29415],[-122.48177,37.27109],[-122.48405,37.24994],[-122.48314,37.23474],[-122.4817,37.22915],[-122.47907,37.22168],[-122.47554,37.2161],[-122.47223,37.21221],[-122.47052,37.20216],[-122.4685,37.19581],[-122.46857,37.19348],[-122.46805,37.18796],[-122.46591,37.18186],[-122.46412,37.17785],[-122.45865,37.16978],[-122.45543,37.1666],[-122.45335,37.16168],[-122.45151,37.15825],[-122.44563,37.15004],[-122.43934,37.14466],[-122.42847,37.13775],[-122.42135,37.13508],[-122.41976,37.13188],[-122.41774,37.12916],[-122.41575,37.12495],[-122.41336,37.12179],[-122.40928,37.11775],[-122.4044,37.11393],[-122.39692,37.10989],[-122.39739,37.10704],[-122.39688,37.10276],[-122.39536,37.09374],[-122.39313,37.08716],[-122.38942,37.08097],[-122.38574,37.07589],[-122.37609,37.06565],[-122.36965,37.06202],[-122.36,37.05839],[-122.34821,37.05567],[-122.33641,37.05386],[-122.32355,37.05386],[-122.3139,37.05476],[-122.30318,37.04388],[-122.29031,37.03209],[-122.27637,37.02483],[-122.27316,37.01849],[-122.26994,37.00942],[-122.26565,37.00012],[-122.26105,36.99345],[-122.25108,36.98583],[-122.20932,36.96161],[-122.18801,36.95025],[-122.17202,36.94268],[-122.15899,36.93745],[-122.13057,36.92534],[-122.10304,36.91626],[-122.08173,36.91096],[-122.0764,36.9102],[-122.06832,36.87495],[-122.00112,36.6477],[-122.00349,36.6464],[-122.0126,36.63857],[-122.01417,36.63668],[-122.01742,36.63204],[-122.01935,36.62776],[-122.02041,36.62496],[-122.02013,36.6228],[-122.02364,36.62044],[-122.02513,36.61859],[-122.03425,36.60967],[-122.03854,36.60283],[-122.04073,36.60012],[-122.04275,36.59663],[-122.04415,36.59135],[-122.0444,36.58046],[-122.04405,36.57825],[-122.04282,36.57277],[-122.04115,36.56821],[-122.03746,36.56038],[-122.02903,36.5485],[-122.0214,36.54125],[-122.01798,36.53869],[-122.01746,36.53741],[-122.01894,36.53527],[-122.02052,36.53192],[-122.02271,36.52223],[-122.02305,36.51582],[-122.0227,36.51197],[-122.022,36.50891],[-122.01998,36.50321],[-122.01831,36.49996],[-122.01333,36.48389],[-122.00897,36.47533],[-122.00523,36.47052],[-122.00107,36.46825],[-121.99947,36.46645],[-122.00055,36.46105],[-122.00084,36.45568],[-122.00061,36.45327],[-121.99943,36.44812],[-121.99712,36.441],[-121.9941,36.43506],[-121.99292,36.4334],[-121.9874,36.42661],[-121.98193,36.42154],[-121.98104,36.41963],[-121.98026,36.41089],[-121.97889,36.40682],[-121.97685,36.40224],[-121.97738,36.40133],[-121.97725,36.40013],[-121.97654,36.39571],[-121.97564,36.39257],[-121.97212,36.38566],[-121.97039,36.38337],[-121.97097,36.38249],[-121.97181,36.37856],[-121.97173,36.37496],[-121.97229,36.37285],[-121.97168,36.36981],[-121.97211,36.36602],[-121.97188,36.35783],[-121.96994,36.34918],[-121.96891,36.34631],[-121.96916,36.34556],[-121.96887,36.34076],[-121.96736,36.33417],[-121.96434,36.32542],[-121.96287,36.32273],[-121.96422,36.31544],[-121.96461,36.30698],[-121.96318,36.29877],[-121.96189,36.29332],[-121.95905,36.28711],[-121.95767,36.28512],[-121.95283,36.27847],[-121.94684,36.27179],[-121.9442,36.2696],[-121.93066,36.25956],[-121.92741,36.25828],[-121.92182,36.25522],[-121.92036,36.25505],[-121.9163,36.25148],[-121.91127,36.24876],[-121.9057,36.24302],[-121.90116,36.23965],[-121.89948,36.23499],[-121.89352,36.22429],[-121.88933,36.21883],[-121.88485,36.2143],[-121.88019,36.21031],[-121.85846,36.19798],[-121.85517,36.19652],[-121.85414,36.19529],[-121.85015,36.19234],[-121.8464,36.19034],[-121.83659,36.18629],[-121.83168,36.18459],[-121.82259,36.18259],[-121.81164,36.18098],[-121.80235,36.1783],[-121.79689,36.17387],[-121.79303,36.17123],[-121.78797,36.16847],[-121.77672,36.16355],[-121.77342,36.16244],[-121.77069,36.16201],[-121.76396,36.15727],[-121.7612,36.15572],[-121.75936,36.1536],[-121.75106,36.14745],[-121.74733,36.14599],[-121.74606,36.14496],[-121.74138,36.13923],[-121.73811,36.13578],[-121.73405,36.1331],[-121.73131,36.1307],[-121.72781,36.12901],[-121.72607,36.12594],[-121.70872,36.1026],[-121.67436,36.06466],[-121.66454,36.03936],[-121.658,36.0211],[-121.64818,35.99862],[-121.63182,35.97894],[-121.62037,35.96911],[-121.60564,35.96489],[-121.58928,35.95927],[-121.56964,35.94944],[-121.56146,35.94382],[-121.55492,35.92836],[-121.54183,35.90166],[-121.53201,35.8848],[-121.52547,35.87496],[-121.51919,35.8634],[-121.50105,35.84274],[-121.48161,35.82935],[-121.46235,35.82019],[-121.4561,35.81771],[-121.45063,35.80978],[-121.44531,35.80457],[-121.4285,35.78591],[-121.39975,35.76534],[-121.39346,35.7634],[-121.39374,35.74997],[-121.39171,35.74389],[-121.38563,35.73369],[-121.37933,35.72696],[-121.37918,35.72252],[-121.37813,35.71864],[-121.37715,35.71647],[-121.37873,35.71153],[-121.37896,35.70603],[-121.36636,35.68042],[-121.35338,35.6692],[-121.34772,35.66498],[-121.34773,35.66301],[-121.34606,35.66141],[-121.3456,35.65596],[-121.33964,35.64243],[-121.32351,35.62497],[-121.30998,35.6171],[-121.28604,35.60844],[-121.27042,35.60648],[-121.25981,35.60176],[-121.24659,35.60036],[-121.23556,35.59501],[-121.23181,35.59404],[-121.22012,35.58687],[-121.20156,35.58369],[-121.1877,35.56908],[-121.17776,35.56125],[-121.1684,35.54561],[-121.15959,35.52944],[-121.15106,35.51641],[-121.1405,35.50637],[-121.13246,35.49997],[-121.12827,35.49561],[-121.12603,35.4944],[-121.12205,35.49362],[-121.11817,35.4906],[-121.11121,35.48132],[-121.10014,35.47088],[-121.09224,35.46667],[-121.08872,35.46178],[-121.08295,35.45564],[-121.07381,35.44957],[-121.07062,35.44768],[-121.06906,35.44725],[-121.06513,35.44255],[-121.06093,35.4392],[-121.05951,35.4377],[-121.05665,35.43338],[-121.05231,35.42855],[-121.04164,35.41999],[-121.03173,35.41555],[-121.02315,35.41278],[-121.015,35.41063],[-121.00556,35.4095],[-120.99486,35.40986],[-120.98963,35.41114],[-120.98505,35.40816],[-120.97683,35.40356],[-120.96807,35.39959],[-120.95967,35.39649],[-120.9504,35.39447],[-120.93329,35.39275],[-120.93101,35.38975],[-120.92829,35.38684],[-120.93024,35.38309],[-120.93093,35.37973],[-120.9308,35.37497],[-120.92828,35.36096],[-120.92344,35.34841],[-120.92491,35.34342],[-120.92641,35.33664],[-120.9286,35.33071],[-120.94017,35.30772],[-120.94468,35.3003],[-120.94816,35.29546],[-120.95128,35.29014],[-120.95333,35.28485],[-120.95511,35.27848],[-120.95557,35.27552],[-120.95938,35.26544],[-120.96136,35.25614],[-120.96125,35.24997],[-120.96025,35.24362],[-120.95672,35.23535],[-120.95326,35.22836],[-120.94903,35.22102],[-120.94386,35.21378],[-120.93735,35.20805],[-120.93278,35.20553],[-120.9302,35.20463],[-120.92792,35.19943],[-120.924,35.19402],[-120.91779,35.18738],[-120.90535,35.17723],[-120.89684,35.17134],[-120.88775,35.16562],[-120.8805,35.16163],[-120.87601,35.15972],[-120.8717,35.15371],[-120.86487,35.14784],[-120.85693,35.14281],[-120.8473,35.13787],[-120.83942,35.13465],[-120.83059,35.13187],[-120.82531,35.13129],[-120.82199,35.13144],[-120.81862,35.12785],[-120.80839,35.12055],[-120.80041,35.11658],[-120.79113,35.11386],[-120.78292,35.11198],[-120.77267,35.11048],[-120.76517,35.11047],[-120.76071,35.11107],[-120.75661,35.10996],[-120.75243,35.10946],[-120.74631,35.1093],[-120.7385,35.10964],[-120.73061,35.11119],[-120.7255,35.11358],[-120.7223,35.11147],[-120.71537,35.10798],[-120.70709,35.10429],[-120.69911,35.10154],[-120.68961,35.09883],[-120.68919,35.08716],[-120.6878,35.07749],[-120.68906,35.07486],[-120.69034,35.06907],[-120.69166,35.06036],[-120.69471,35.02884],[-120.69741,35.01797],[-120.70056,35.00965],[-120.70279,34.99998],[-120.71206,34.97293],[-120.71393,34.96677],[-120.71444,34.96354],[-120.71483,34.96263],[-120.71792,34.95998],[-120.72026,34.95629],[-120.72426,34.94967],[-120.72675,34.94381],[-120.72811,34.93826],[-120.72851,34.93165],[-120.72836,34.92836],[-120.72723,34.92332],[-120.72883,34.92138],[-120.73195,34.9143],[-120.73342,34.91016],[-120.73433,34.90475],[-120.73438,34.9015],[-120.73382,34.89604],[-120.73297,34.8926],[-120.73068,34.88643],[-120.72735,34.87953],[-120.72457,34.87498],[-120.72412,34.8737],[-120.72032,34.86924],[-120.71297,34.8629],[-120.70495,34.85815],[-120.6956,34.85458],[-120.6841,34.84453],[-120.67761,34.84066],[-120.67328,34.83862],[-120.68079,34.81381],[-120.68442,34.80366],[-120.69075,34.78884],[-120.69289,34.78266],[-120.69667,34.77698],[-120.6998,34.77086],[-120.70183,34.76321],[-120.70223,34.76022],[-120.70209,34.74833],[-120.7007,34.74319],[-120.69828,34.73783],[-120.69323,34.73004],[-120.68843,34.7242],[-120.68466,34.72108],[-120.68216,34.71609],[-120.67731,34.70974],[-120.66891,34.70158],[-120.66584,34.69943],[-120.66469,34.69634],[-120.66836,34.68815],[-120.67251,34.67666],[-120.68248,34.65298],[-120.68648,34.64502],[-120.69394,34.63834],[-120.69691,34.63528],[-120.70128,34.63001],[-120.70263,34.62774],[-120.70531,34.62141],[-120.70718,34.61621],[-120.70837,34.60985],[-120.70856,34.60609],[-120.70709,34.5975],[-120.71089,34.58841],[-120.71213,34.5842],[-120.71333,34.57496],[-120.71276,34.5683],[-120.71038,34.56096],[-120.70645,34.55191],[-120.70397,34.5485],[-120.69883,34.54312],[-120.6968,34.54154],[-120.69499,34.54063],[-120.69429,34.53887],[-120.69066,34.53356],[-120.68453,34.52713],[-120.68221,34.52533],[-120.67572,34.52128],[-120.6724,34.51999],[-120.67131,34.51884],[-120.66345,34.51307],[-120.65606,34.5086],[-120.65056,34.50638],[-120.64236,34.50377],[-120.63258,34.50269],[-120.626,34.50264],[-120.62105,34.5031],[-120.61644,34.50237],[-120.60948,34.50191],[-120.604,34.50207],[-120.60047,34.50256],[-120.59433,34.50407],[-120.58817,34.49999],[-120.58151,34.49663],[-120.57145,34.49254],[-120.56888,34.49219],[-120.56662,34.49028],[-120.56388,34.4893],[-120.55944,34.48847],[-120.5583,34.48262],[-120.55607,34.47668],[-120.5531,34.47101],[-120.54904,34.46515],[-120.54459,34.46022],[-120.5415,34.45708],[-120.53821,34.45431],[-120.53566,34.4527],[-120.53591,34.44674],[-120.53557,34.43952],[-120.53293,34.43318],[-120.52365,34.4195],[-120.51416,34.41205],[-120.50404,34.40553],[-120.501,34.40314],[-120.48809,34.39828],[-120.47882,34.39671],[-120.47522,34.39666],[-120.46869,34.39394],[-120.45602,34.39148],[-120.451,34.39118],[-120.44364,34.39196],[-120.43625,34.39318],[-120.43104,34.39465],[-120.42603,34.39674],[-120.40853,34.39865],[-120.39798,34.40102],[-120.39059,34.4033],[-120.38692,34.40565],[-120.3773,34.40638],[-120.36932,34.40784],[-120.36733,34.40849],[-120.35548,34.40726],[-120.34887,34.40732],[-120.34685,34.40843],[-120.34186,34.40892],[-120.34,34.40942],[-120.33286,34.40922],[-120.32451,34.40975],[-120.31228,34.41279],[-120.30632,34.41321],[-120.29705,34.41498],[-120.28713,34.41761],[-120.28022,34.4163],[-120.26474,34.41768],[-120.25399,34.41758],[-120.24827,34.41806],[-120.24583,34.41757],[-120.2406,34.41746],[-120.22388,34.41916],[-120.22032,34.42034],[-120.21587,34.42129],[-120.20283,34.42221],[-120.19816,34.42079],[-120.19175,34.41999],[-120.18418,34.41998],[-120.1764,34.42095],[-120.17016,34.42034],[-120.16364,34.42036],[-120.1508,34.42187],[-120.14728,34.42292],[-120.13945,34.42178],[-120.13512,34.42206],[-120.12724,34.41872],[-120.10831,34.41289],[-120.09902,34.41069],[-120.09067,34.40929],[-120.08309,34.40937],[-120.07962,34.41001],[-120.07644,34.41112],[-120.0703,34.40977],[-120.06328,34.40962],[-120.05679,34.40994],[-120.05122,34.41074],[-120.04481,34.41245],[-120.03614,34.40995],[-120.0273,34.40897],[-120.02436,34.40934],[-120.00942,34.40154],[-120.00538,34.40035],[-120.00097,34.39949],[-119.92339,34.37345],[-119.92033,34.37276],[-119.91653,34.37261],[-119.91289,34.36939],[-119.90542,34.36437],[-119.8985,34.36036],[-119.89152,34.35746],[-119.88387,34.35614],[-119.87597,34.35564],[-119.86763,34.35669],[-119.8659,34.35719],[-119.85527,34.35433],[-119.84564,34.35377],[-119.83792,34.35432],[-119.82315,34.35705],[-119.8159,34.35977],[-119.80581,34.36534],[-119.80159,34.36473],[-119.79707,34.36533],[-119.78552,34.3599],[-119.77733,34.35757],[-119.76893,34.35451],[-119.76357,34.35291],[-119.75097,34.34709],[-119.73924,34.34276],[-119.73202,34.3397],[-119.71613,34.33611],[-119.71364,34.33603],[-119.70759,34.33732],[-119.69778,34.34087],[-119.67963,34.34821],[-119.66611,34.35446],[-119.65136,34.36671],[-119.64295,34.36584],[-119.63627,34.36572],[-119.62596,34.36622],[-119.6225,34.36674],[-119.61746,34.36873],[-119.61433,34.36767],[-119.61085,34.36722],[-119.60206,34.36365],[-119.59029,34.36121],[-119.58479,34.36166],[-119.57454,34.35382],[-119.56331,34.34813],[-119.55583,34.34502],[-119.54785,34.34436],[-119.54602,34.34338],[-119.53976,34.34105],[-119.53265,34.33877],[-119.52792,34.33877],[-119.52608,34.33705],[-119.52291,34.33592],[-119.51947,34.33607],[-119.5108,34.33085],[-119.50095,34.32692],[-119.48422,34.30678],[-119.46699,34.29366],[-119.44898,34.28469],[-119.42862,34.27778],[-119.41139,34.27364],[-119.40199,34.27226],[-119.38633,34.25707],[-119.37594,34.24988],[-119.36413,34.24501],[-119.35073,34.24014],[-119.33593,34.23752],[-119.33489,34.23687],[-119.32865,34.22691],[-119.31683,34.20252],[-119.29757,34.16032],[-119.28574,34.1408],[-119.26773,34.12125],[-119.25513,34.10929],[-119.25094,34.1062],[-119.21799,34.06249],[-119.15896,34.04025],[-119.1168,34.02982],[-119.05777,34.01939],[-119.02741,34.01492],[-119.00042,34.00747],[-118.98531,34.00001],[-118.97998,33.99881],[-118.96403,33.99675],[-118.95243,33.99296],[-118.94044,33.99145],[-118.93165,33.99211],[-118.9262,33.991],[-118.91543,33.99042],[-118.91046,33.98941],[-118.89726,33.9878],[-118.8873,33.98722],[-118.88483,33.98606],[-118.8814,33.98497],[-118.874,33.98331],[-118.87099,33.98064],[-118.864,33.97302],[-118.85685,33.96597],[-118.85279,33.96257],[-118.84112,33.95537],[-118.83476,33.95238],[-118.82938,33.95039],[-118.82489,33.94904],[-118.81475,33.94721],[-118.80983,33.9469],[-118.80361,33.94724],[-118.79213,33.94952],[-118.78653,33.95143],[-118.77904,33.95453],[-118.76814,33.9608],[-118.76428,33.96361],[-118.75687,33.9664],[-118.75441,33.96779],[-118.75092,33.97107],[-118.74961,33.9718],[-118.74639,33.9755],[-118.73553,33.97704],[-118.72746,33.98031],[-118.71674,33.97869],[-118.70457,33.97784],[-118.69851,33.97819],[-118.68914,33.97995],[-118.68401,33.97922],[-118.68081,33.97916],[-118.67702,33.97927],[-118.66651,33.98056],[-118.65646,33.9838],[-118.65016,33.98512],[-118.64835,33.98673],[-118.64394,33.9858],[-118.63307,33.98565],[-118.62632,33.98646],[-118.62592,33.98723],[-118.61132,33.98619],[-118.60439,33.98628],[-118.59971,33.98667],[-118.59408,33.98807],[-118.59097,33.98724],[-118.58658,33.98701],[-118.57602,33.98752],[-118.56969,33.98881],[-118.56639,33.98808],[-118.55736,33.98767],[-118.54842,33.97997],[-118.53347,33.96179],[-118.52575,33.95539],[-118.52345,33.95305],[-118.51361,33.93896],[-118.50863,33.93252],[-118.50648,33.92805],[-118.50091,33.91862],[-118.47682,33.88951],[-118.4582,33.86526],[-118.44725,33.84876],[-118.44397,33.83906],[-118.45054,33.83227],[-118.46915,33.81868],[-118.48448,33.80315],[-118.48777,33.77987],[-118.48558,33.75366],[-118.46696,33.72552],[-118.42864,33.70127],[-118.38593,33.68671],[-118.37717,33.67895],[-118.34541,33.66343],[-118.31913,33.65955],[-118.27424,33.66343],[-118.25453,33.67507],[-118.23701,33.69059],[-118.19211,33.69059],[-118.16583,33.69156],[-118.1259,33.69715],[-118.10748,33.66878],[-118.09647,33.65365],[-118.07507,33.63961],[-118.04985,33.62001],[-118.03361,33.60935],[-118.01532,33.59949],[-118.005,33.59463],[-118.00088,33.59317],[-117.97381,33.57623],[-117.93405,33.54925],[-117.87369,33.51977],[-117.83604,33.50003],[-117.82659,33.497],[-117.8235,33.4946],[-117.81636,33.49087],[-117.81484,33.48721],[-117.81128,33.48202],[-117.80442,33.47662],[-117.79326,33.46978],[-117.79235,33.46535],[-117.79048,33.46124],[-117.78147,33.45066],[-117.77606,33.44529],[-117.77234,33.44024],[-117.76514,33.43154],[-117.75741,33.42428],[-117.75089,33.41898],[-117.74141,33.41012],[-117.73534,33.40744],[-117.72572,33.40744],[-117.71357,33.40878],[-117.68519,33.38776],[-117.66618,33.37503],[-117.6538,33.36482],[-117.64786,33.36363],[-117.64117,33.35574],[-117.63895,33.35223],[-117.6362,33.34913],[-117.62588,33.34211],[-117.57153,33.3123],[-117.5496,33.29442],[-117.521,33.26887],[-117.50774,33.25003],[-117.50088,33.24215],[-117.46787,33.21249],[-117.43556,33.17751],[-117.40521,33.12504],[-117.39224,33.10342],[-117.37587,33.07522],[-117.32328,32.90306],[-117.33264,32.88216],[-117.33966,32.85917],[-117.342,32.84035],[-117.3303,32.80482],[-117.32562,32.73165],[-117.32094,32.68985],[-117.30924,32.6564],[-117.29754,32.64177],[-117.27692,32.62347],[-117.27259,32.62161],[-117.26879,32.61941],[-117.26077,32.61687],[-117.25509,32.61547],[-117.25199,32.61486],[-117.24679,32.61485],[-117.23351,32.61668],[-117.22841,32.6185],[-117.2233,32.62124],[-117.2182,32.61029],[-117.21411,32.59478],[-117.21003,32.57288],[-117.21003,32.55463],[-117.20505,32.52951],[-117.12466,32.53427],[-116.73896,32.56705],[-116.43941,32.59178],[-116.10618,32.61844],[-115.81716,32.64083],[-115.58096,32.65864],[-115.36866,32.67411],[-115.0513,32.69633],[-114.7195,32.71874],[-114.7177,32.72155],[-114.71579,32.72776],[-114.71452,32.73039],[-114.71263,32.73268],[-114.71062,32.73394],[-114.70907,32.73546],[-114.70572,32.74158],[-114.70294,32.74479],[-114.70158,32.74563],[-114.70074,32.74562],[-114.69879,32.74485],[-114.69539,32.74224],[-114.6918,32.74015],[-114.68928,32.73793],[-114.68823,32.73753],[-114.68261,32.73735],[-114.67202,32.73495],[-114.66592,32.73403],[-114.65425,32.73357],[-114.64535,32.73214],[-114.63501,32.73137],[-114.6293,32.72991],[-114.6174,32.72826],[-114.61567,32.72845],[-114.61587,32.72972],[-114.6155,32.73004],[-114.6155,32.73145],[-114.61479,32.73285],[-114.61479,32.73408],[-114.61511,32.73452],[-114.58178,32.73495],[-114.58174,32.74232],[-114.56451,32.74227],[-114.56445,32.74955],[-114.53922,32.74981],[-114.53909,32.75695],[-114.52686,32.75709],[-114.52844,32.76728],[-114.52926,32.76948],[-114.53183,32.77426],[-114.53243,32.77692],[-114.53243,32.77864],[-114.53175,32.7825],[-114.53167,32.79119],[-114.52963,32.79548],[-114.52203,32.80167],[-114.52038,32.80358],[-114.52036,32.80439],[-114.51976,32.80568],[-114.51539,32.81144],[-114.51033,32.81649],[-114.49412,32.82329],[-114.47589,32.83869],[-114.46897,32.84516],[-114.46571,32.87368],[-114.46517,32.88529],[-114.46331,32.89912],[-114.46293,32.90794],[-114.46365,32.91168],[-114.46445,32.91313],[-114.47371,32.92059],[-114.47664,32.92363],[-114.47795,32.92571],[-114.479,32.92829],[-114.48078,32.93368],[-114.48092,32.93628],[-114.48074,32.93703],[-114.47846,32.94055],[-114.47404,32.94515],[-114.47077,32.94942],[-114.46806,32.95526],[-114.4674,32.95791],[-114.46732,32.96406],[-114.4686,32.97165],[-114.47051,32.97386],[-114.47276,32.97469],[-114.47539,32.97516],[-114.47785,32.97455],[-114.47992,32.9736],[-114.48076,32.97298],[-114.48131,32.97206],[-114.48481,32.97134],[-114.48862,32.96995],[-114.49013,32.96988],[-114.49218,32.97102],[-114.49294,32.97178],[-114.49421,32.97426],[-114.49571,32.98007],[-114.4968,32.98653],[-114.49705,32.99021],[-114.49941,33.00004],[-114.4998,33.0039],[-114.50287,33.01115],[-114.50636,33.0174],[-114.50796,33.01971],[-114.51134,33.02345],[-114.5149,33.02652],[-114.52013,33.02998],[-114.52358,33.03096],[-114.53108,33.03239],[-114.53846,33.03342],[-114.55319,33.03397],[-114.56085,33.03529],[-114.5648,33.03508],[-114.57165,33.03662],[-114.57516,33.03654],[-114.57829,33.03538],[-114.57937,33.03456],[-114.5814,33.03255],[-114.58477,33.02823],[-114.58698,33.02694],[-114.58978,33.02623],[-114.59809,33.02538],[-114.60101,33.02541],[-114.61158,33.02622],[-114.61879,33.0272],[-114.62579,33.02944],[-114.62829,33.03105],[-114.62973,33.03255],[-114.63419,33.03902],[-114.63955,33.04529],[-114.64162,33.04689],[-114.64482,33.04864],[-114.64598,33.0489],[-114.64705,33.04842],[-114.649,33.04676],[-114.651,33.04413],[-114.65504,33.03711],[-114.65783,33.03382],[-114.65983,33.03266],[-114.66232,33.03267],[-114.66506,33.03391],[-114.6708,33.03798],[-114.67366,33.0419],[-114.67483,33.04551],[-114.6751,33.04753],[-114.6743,33.05717],[-114.67911,33.06197],[-114.68699,33.07097],[-114.68912,33.07612],[-114.68931,33.07918],[-114.6886,33.08287],[-114.68902,33.08404],[-114.69255,33.08579],[-114.69463,33.08623],[-114.70117,33.08637],[-114.70473,33.08705],[-114.70649,33.08816],[-114.70782,33.0911],[-114.70813,33.09402],[-114.7079,33.09743],[-114.70617,33.10533],[-114.70368,33.11377],[-114.69691,33.13112],[-114.69486,33.13346],[-114.69025,33.13772],[-114.6874,33.14198],[-114.68491,33.14782],[-114.68276,33.15481],[-114.67994,33.15906],[-114.67935,33.16243],[-114.68089,33.16907],[-114.68024,33.16964],[-114.67911,33.17461],[-114.67583,33.18152],[-114.67536,33.18549],[-114.67519,33.18818],[-114.67816,33.19949],[-114.67875,33.20345],[-114.67607,33.21084],[-114.67372,33.21925],[-114.67363,33.22312],[-114.67448,33.2255],[-114.6781,33.2303],[-114.68273,33.23492],[-114.68942,33.24525],[-114.68954,33.24643],[-114.68821,33.24796],[-114.68325,33.25003],[-114.67766,33.25443],[-114.67449,33.2556],[-114.67292,33.25704],[-114.67209,33.2585],[-114.6724,33.26047],[-114.67703,33.27017],[-114.68051,33.27358],[-114.68436,33.27602],[-114.6886,33.27786],[-114.69445,33.27979],[-114.70287,33.28192],[-114.7112,33.28334],[-114.71788,33.28516],[-114.72167,33.28698],[-114.72326,33.28808],[-114.73122,33.30243],[-114.73122,33.30404],[-114.7299,33.30574],[-114.72648,33.30827],[-114.72466,33.3101],[-114.72362,33.31211],[-114.71861,33.31576],[-114.71068,33.32045],[-114.70787,33.32332],[-114.70519,33.32771],[-114.70094,33.33701],[-114.69935,33.34569],[-114.69912,33.34926],[-114.69804,33.35244],[-114.69817,33.35657],[-114.69906,33.36115],[-114.70196,33.36713],[-114.7042,33.37124],[-114.70672,33.37503],[-114.70735,33.37663],[-114.70749,33.37838],[-114.70701,33.38063],[-114.70731,33.38254],[-114.70841,33.38414],[-114.7136,33.38826],[-114.72425,33.40042],[-114.72529,33.40234],[-114.72554,33.40406],[-114.72528,33.40505],[-114.72383,33.40653],[-114.7222,33.40738],[-114.72007,33.40789],[-114.71088,33.40725],[-114.70179,33.40838],[-114.69771,33.41094],[-114.6968,33.41209],[-114.69651,33.41406],[-114.69566,33.41513],[-114.68795,33.41793],[-114.67369,33.41916],[-114.65825,33.41302],[-114.65673,33.41281],[-114.65283,33.41292],[-114.64954,33.41363],[-114.6433,33.41675],[-114.63518,33.42272],[-114.63326,33.42502],[-114.6309,33.42675],[-114.62964,33.42814],[-114.62748,33.43231],[-114.62228,33.44756],[-114.62252,33.45088],[-114.6234,33.45449],[-114.62292,33.45656],[-114.61835,33.46271],[-114.61433,33.46732],[-114.61378,33.46905],[-114.61247,33.47077],[-114.60784,33.47483],[-114.6034,33.48063],[-114.60169,33.4814],[-114.59971,33.48432],[-114.59728,33.49065],[-114.59372,33.49593],[-114.59237,33.49868],[-114.58925,33.50181],[-114.58047,33.50647],[-114.57376,33.50754],[-114.56953,33.50922],[-114.56096,33.51674],[-114.56055,33.51827],[-114.56084,33.52433],[-114.5601,33.52666],[-114.55951,33.53072],[-114.5589,33.53182],[-114.54201,33.54248],[-114.5318,33.54786],[-114.5304,33.5501],[-114.526,33.55146],[-114.5246,33.55223],[-114.52422,33.55307],[-114.52822,33.55932],[-114.53161,33.5617],[-114.53233,33.56288],[-114.53319,33.56582],[-114.53596,33.56915],[-114.53678,33.57096],[-114.5378,33.57556],[-114.53898,33.57679],[-114.5403,33.58062],[-114.54065,33.58287],[-114.54011,33.58835],[-114.54066,33.58979],[-114.54062,33.59141],[-114.53749,33.5949],[-114.53678,33.59639],[-114.53105,33.60448],[-114.52919,33.60665],[-114.52678,33.60883],[-114.52399,33.60999],[-114.52207,33.61128],[-114.52184,33.61254],[-114.52237,33.61417],[-114.52738,33.61783],[-114.52858,33.61999],[-114.52908,33.62171],[-114.53121,33.62391],[-114.53103,33.62821],[-114.53031,33.62904],[-114.52637,33.63026],[-114.5238,33.6347],[-114.52539,33.64067],[-114.52955,33.64386],[-114.53321,33.64844],[-114.53319,33.65166],[-114.53216,33.65319],[-114.53058,33.65446],[-114.52516,33.65594],[-114.51834,33.65593],[-114.51456,33.65801],[-114.51406,33.66018],[-114.51534,33.66203],[-114.51711,33.66288],[-114.52067,33.66268],[-114.52644,33.66388],[-114.53027,33.66682],[-114.53212,33.6697],[-114.53152,33.67511],[-114.53035,33.67924],[-114.52778,33.68268],[-114.52396,33.68588],[-114.51911,33.68847],[-114.51241,33.69128],[-114.508,33.69202],[-114.50499,33.69302],[-114.5029,33.69426],[-114.49649,33.6969],[-114.49572,33.69845],[-114.49554,33.70151],[-114.49441,33.70539],[-114.4942,33.70792],[-114.4949,33.71443],[-114.49657,33.71915],[-114.49813,33.72063],[-114.50079,33.7222],[-114.50266,33.72458],[-114.50418,33.72805],[-114.5068,33.73052],[-114.51026,33.73215],[-114.51235,33.73421],[-114.51078,33.73757],[-114.50821,33.74159],[-114.506,33.74634],[-114.50448,33.751],[-114.50434,33.75638],[-114.50486,33.76047],[-114.50709,33.76793],[-114.51673,33.78835],[-114.51894,33.7973],[-114.52156,33.80198],[-114.52468,33.80896],[-114.52719,33.81264],[-114.52805,33.81496],[-114.52789,33.81562],[-114.52716,33.81619],[-114.52271,33.81898],[-114.52073,33.82203],[-114.51997,33.82538],[-114.52046,33.82778],[-114.52341,33.83532],[-114.52554,33.83861],[-114.5296,33.84806],[-114.53061,33.85544],[-114.52988,33.85756],[-114.52707,33.85943],[-114.52567,33.86],[-114.52429,33.86013],[-114.52287,33.85996],[-114.519,33.85856],[-114.51681,33.85812],[-114.51467,33.85864],[-114.51135,33.86157],[-114.50664,33.86348],[-114.50564,33.86428],[-114.50389,33.86575],[-114.5031,33.86717],[-114.50302,33.868],[-114.50386,33.87123],[-114.50339,33.87502],[-114.50434,33.87688],[-114.51014,33.88078],[-114.51866,33.88826],[-114.52277,33.89258],[-114.52481,33.89568],[-114.52587,33.90101],[-114.52569,33.90143],[-114.52429,33.90159],[-114.51634,33.89792],[-114.51371,33.89796],[-114.51094,33.8991],[-114.50871,33.90064],[-114.50799,33.90181],[-114.50792,33.90381],[-114.50856,33.9061],[-114.51151,33.91109],[-114.5145,33.91421],[-114.51843,33.91752],[-114.52339,33.92122],[-114.52536,33.92227],[-114.52839,33.92367],[-114.53111,33.92463],[-114.53415,33.92519],[-114.53495,33.9257],[-114.53585,33.9281],[-114.53568,33.93355],[-114.53446,33.93689],[-114.53057,33.94363],[-114.52868,33.94782],[-114.52273,33.95504],[-114.5211,33.95606],[-114.51586,33.95811],[-114.51497,33.95815],[-114.51123,33.95704],[-114.50875,33.9575],[-114.49988,33.96179],[-114.49604,33.96589],[-114.4904,33.97062],[-114.48846,33.97283],[-114.48478,33.97552],[-114.4831,33.97775],[-114.48233,33.98018],[-114.48146,33.98126],[-114.47591,33.98442],[-114.47114,33.98804],[-114.46793,33.99288],[-114.46619,33.99346],[-114.46113,33.99354],[-114.46012,33.99389],[-114.45926,33.99471],[-114.45803,33.99716],[-114.45803,33.99782],[-114.45918,34.00002],[-114.46069,34.00113],[-114.46628,34.00388],[-114.46731,34.00519],[-114.4674,34.00745],[-114.46587,34.01099],[-114.46453,34.01198],[-114.46334,34.01226],[-114.45481,34.01097],[-114.45021,34.01257],[-114.44681,34.01421],[-114.44382,34.01618],[-114.44054,34.01933],[-114.43827,34.02261],[-114.43617,34.02808],[-114.43495,34.03778],[-114.43582,34.04373],[-114.4386,34.0502],[-114.43941,34.05381],[-114.43934,34.05789],[-114.43768,34.07194],[-114.43591,34.07749],[-114.43418,34.08738],[-114.43338,34.08841],[-114.42803,34.09279],[-114.42617,34.09704],[-114.4229,34.09966],[-114.4205,34.10347],[-114.41591,34.10764],[-114.41168,34.11003],[-114.40592,34.11147],[-114.40134,34.11164],[-114.39057,34.11008],[-114.37922,34.11599],[-114.36929,34.11752],[-114.36652,34.11858],[-114.3604,34.12358],[-114.35939,34.12502],[-114.35836,34.12762],[-114.35637,34.13043],[-114.35303,34.13312],[-114.35048,34.13411],[-114.34805,34.13446],[-114.33611,34.13403],[-114.32458,34.13676],[-114.32078,34.13863],[-114.31221,34.14478],[-114.3078,34.15057],[-114.29817,34.16032],[-114.29281,34.16672],[-114.28729,34.17053],[-114.27527,34.17215],[-114.26846,34.17018],[-114.25703,34.17284],[-114.25344,34.17413],[-114.24442,34.1794],[-114.24071,34.18323],[-114.22972,34.18693],[-114.22703,34.18887],[-114.22581,34.19124],[-114.22494,34.1939],[-114.22507,34.19681],[-114.22579,34.19924],[-114.22586,34.20177],[-114.22519,34.20364],[-114.22338,34.20514],[-114.21545,34.20896],[-114.21176,34.21154],[-114.20825,34.2155],[-114.19088,34.23086],[-114.17805,34.23997],[-114.1764,34.24151],[-114.17595,34.24269],[-114.17591,34.24559],[-114.1746,34.2473],[-114.16654,34.24965],[-114.16612,34.25001],[-114.16448,34.25167],[-114.16387,34.25335],[-114.16396,34.25538],[-114.16533,34.25849],[-114.16525,34.25913],[-114.16465,34.2597],[-114.15685,34.25841],[-114.15335,34.25829],[-114.14716,34.25956],[-114.14478,34.25962],[-114.13545,34.25789],[-114.13326,34.25846],[-114.13149,34.26039],[-114.13121,34.26273],[-114.13477,34.26896],[-114.13667,34.27438],[-114.13704,34.27702],[-114.13605,34.28083],[-114.13668,34.28394],[-114.13837,34.28856],[-114.13953,34.29584],[-114.13919,34.29807],[-114.13817,34.30094],[-114.13828,34.30323],[-114.14093,34.30592],[-114.15721,34.31786],[-114.15794,34.32028],[-114.16425,34.33082],[-114.16881,34.33951],[-114.17284,34.34498],[-114.17691,34.34931],[-114.18115,34.35219],[-114.18556,34.35439],[-114.19109,34.35613],[-114.19648,34.35919],[-114.19948,34.36137],[-114.21377,34.36246],[-114.22611,34.36592],[-114.22969,34.36891],[-114.23307,34.37501],[-114.23427,34.37666],[-114.24526,34.38566],[-114.24865,34.38811],[-114.25274,34.3901],[-114.25822,34.39505],[-114.26291,34.40037],[-114.26432,34.40133],[-114.26752,34.40249],[-114.27218,34.40296],[-114.28011,34.40315],[-114.28226,34.40364],[-114.2868,34.40534],[-114.28866,34.40662],[-114.29022,34.40829],[-114.29175,34.4111],[-114.2919,34.41623],[-114.29223,34.41761],[-114.29484,34.42139],[-114.30102,34.42681],[-114.30866,34.43048],[-114.31225,34.43273],[-114.31905,34.43583],[-114.32613,34.43725],[-114.32688,34.43805],[-114.33067,34.4453],[-114.33299,34.44808],[-114.33537,34.45004],[-114.33963,34.45143],[-114.34262,34.45144],[-114.34897,34.45017],[-114.35602,34.44974],[-114.3634,34.44777],[-114.37372,34.44694],[-114.37579,34.4478],[-114.37885,34.45038],[-114.38298,34.45397],[-114.3867,34.45791],[-114.38741,34.46049],[-114.38719,34.46202],[-114.38352,34.47041],[-114.3817,34.47604],[-114.38155,34.47788],[-114.38304,34.4889],[-114.38236,34.49576],[-114.3814,34.49925],[-114.37812,34.50729],[-114.37822,34.51652],[-114.38084,34.52972],[-114.3896,34.54298],[-114.39885,34.55915],[-114.40523,34.56964],[-114.42238,34.58071],[-114.43567,34.59384],[-114.43681,34.59607],[-114.43636,34.5968],[-114.4275,34.59923],[-114.42534,34.60084],[-114.42433,34.60234],[-114.4242,34.61045],[-114.42865,34.61464],[-114.43874,34.62146],[-114.43949,34.62586],[-114.4414,34.63017],[-114.44152,34.63153],[-114.44068,34.63474],[-114.44029,34.63824],[-114.44052,34.64007],[-114.44146,34.64253],[-114.44428,34.64654],[-114.44566,34.64754],[-114.44955,34.65142],[-114.45798,34.65711],[-114.45821,34.65799],[-114.4577,34.65933],[-114.45718,34.65999],[-114.45179,34.66389],[-114.45061,34.66579],[-114.45051,34.66684],[-114.45153,34.6686],[-114.45431,34.67123],[-114.45491,34.67309],[-114.45488,34.67564],[-114.45554,34.67734],[-114.45816,34.68116],[-114.46218,34.6858],[-114.46363,34.68794],[-114.46525,34.6912],[-114.46809,34.70179],[-114.46813,34.70445],[-114.46862,34.70757],[-114.47048,34.71137],[-114.47162,34.71297],[-114.47368,34.71396],[-114.4773,34.71451],[-114.48278,34.71451],[-114.48751,34.71663],[-114.48929,34.72016],[-114.49097,34.72485],[-114.49202,34.7257],[-114.49586,34.72796],[-114.49901,34.7291],[-114.50079,34.73042],[-114.51029,34.73358],[-114.51418,34.73529],[-114.51662,34.73674],[-114.52105,34.74117],[-114.52262,34.74373],[-114.52561,34.747],[-114.52908,34.75001],[-114.52961,34.75082],[-114.54031,34.75711],[-114.54688,34.7618],[-114.55268,34.76687],[-114.55865,34.77385],[-114.56398,34.7826],[-114.56518,34.78598],[-114.56938,34.79157],[-114.57101,34.79429],[-114.57447,34.80421],[-114.57469,34.80747],[-114.57645,34.8153],[-114.57868,34.82098],[-114.58113,34.82611],[-114.58684,34.83567],[-114.59234,34.84115],[-114.60065,34.84736],[-114.60425,34.84957],[-114.61988,34.85687],[-114.62394,34.85974],[-114.62587,34.86137],[-114.63062,34.86636],[-114.63305,34.86997],[-114.63438,34.87289],[-114.63518,34.875],[-114.63677,34.88571],[-114.63672,34.88911],[-114.63543,34.89519],[-114.63185,34.90394],[-114.63088,34.90726],[-114.63055,34.91185],[-114.63154,34.91615],[-114.63324,34.92123],[-114.63325,34.92461],[-114.6322,34.93063],[-114.62975,34.93868],[-114.62977,34.94304],[-114.62981,34.94481],[-114.63168,34.95131],[-114.63427,34.95666],[-114.63495,34.95892],[-114.63524,34.96515],[-114.63461,34.96906],[-114.62991,34.98079],[-114.62913,34.98613],[-114.62944,34.99182],[-114.63181,34.99863],[-114.63267,34.99981],[-114.63349,35.00186],[-114.79734,35.13493],[-114.83571,35.16556],[-114.85393,35.17925],[-114.89539,35.21333],[-114.98437,35.28397],[-114.99467,35.29251],[-115.0677,35.34974],[-115.084,35.36339],[-115.10096,35.37568],[-115.16106,35.42396],[-115.1649,35.42787],[-115.21951,35.4711],[-115.25972,35.50354],[-115.28397,35.5222],[-115.40485,35.61802],[-115.40597,35.61858],[-115.41809,35.62839],[-115.55703,35.73768],[-115.68869,35.84068],[-115.69544,35.84626],[-115.87068,35.98292],[-115.91873,36.01992],[-116.00066,36.08386],[-116.09417,36.15626],[-116.09722,36.15835],[-116.25078,36.27691],[-116.37122,36.36871],[-116.3759,36.37258],[-116.38035,36.37496],[-116.48823,36.4591],[-116.50088,36.46822],[-116.54198,36.49995],[-116.87425,36.75208],[-117.0009,36.84769],[-117.00401,36.84974],[-117.06448,36.89468],[-117.13197,36.94578],[-117.1512,36.95987],[-117.18289,36.98388],[-117.24492,37.03024],[-117.26605,37.04491],[-117.37122,37.12361],[-117.37345,37.12493],[-117.50012,37.22038],[-117.50091,37.22028],[-117.54089,37.24993],[-117.58142,37.27894],[-117.62591,37.31206],[-117.68061,37.3534],[-117.71236,37.37493],[-117.87593,37.49727],[-117.90463,37.51584],[-117.97954,37.57214],[-117.98695,37.57702],[-117.99557,37.58352],[-118.03748,37.61354],[-118.05219,37.62493],[-118.25096,37.76862],[-118.49604,37.94515],[-118.50096,37.94902],[-118.57196,37.99993],[-118.62168,38.03444],[-118.7142,38.1021],[-118.7466,38.12493],[-118.77187,38.14187],[-118.85908,38.20481],[-118.87587,38.21646],[-118.92252,38.24992],[-118.94967,38.26894],[-119.00097,38.30368],[-119.02978,38.32498],[-119.08236,38.36127],[-119.09716,38.37285],[-119.12598,38.39317],[-119.15556,38.41376],[-119.15591,38.41375],[-119.31227,38.52329],[-119.33006,38.53511],[-119.33005,38.53596],[-119.33342,38.53833],[-119.37012,38.56328],[-119.37599,38.56679],[-119.45382,38.62243],[-119.501,38.65437],[-119.51147,38.66218],[-119.626,38.74094],[-119.63834,38.7499],[-119.83244,38.88405],[-120.00101,38.99957],[-120.00374,39.12491],[-120.00453,39.18744],[-120.00573,39.22583],[-120.00568,39.24404],[-120.00647,39.27288],[-120.00613,39.37411],[-120.00322,39.46186],[-120.00291,39.4644],[-120.00174,39.53058],[-120.00195,39.54872],[-120.00082,39.60683],[-120.00114,39.6358],[-120.0009,39.67514],[-120.00113,39.75223],[-120.00055,39.77522],[-120.00049,39.79727],[-119.99917,39.87491],[-119.99908,39.90616],[-119.99771,39.99991],[-119.99722,40.06981],[-119.99701,40.18623],[-119.99627,40.24991],[-119.99654,40.31813],[-119.99571,40.37583],[-119.99598,40.57055],[-119.99664,40.59945],[-119.99878,40.77385],[-119.99866,40.79416],[-119.99988,40.99989],[-119.99987,41.18397]]],[[[-123.17383,37.77573],[-123.17376,37.77183],[-123.17293,37.7636],[-123.16998,37.75593],[-123.16275,37.74353],[-123.15676,37.73784],[-123.14913,37.73228],[-123.1326,37.71939],[-123.12611,37.71673],[-123.11964,37.71544],[-123.11557,37.71405],[-123.10492,37.71265],[-123.09965,37.71359],[-123.0948,37.71407],[-123.09285,37.71369],[-123.08606,37.70075],[-123.07492,37.69007],[-123.07306,37.68258],[-123.06859,37.67304],[-123.06358,37.66732],[-123.05358,37.65865],[-123.0407,37.65033],[-123.02715,37.64522],[-123.01161,37.64151],[-123.00111,37.64177],[-123.00111,37.63983],[-122.98675,37.64178],[-122.97301,37.64658],[-122.96301,37.65198],[-122.95488,37.65835],[-122.94907,37.66338],[-122.94501,37.66977],[-122.94136,37.67658],[-122.93966,37.68235],[-122.93903,37.68654],[-122.93734,37.69093],[-122.93571,37.69762],[-122.93586,37.70246],[-122.93768,37.70924],[-122.93971,37.71535],[-122.94229,37.72106],[-122.94552,37.72531],[-122.94998,37.73219],[-122.95464,37.73683],[-122.9641,37.74428],[-122.96727,37.7463],[-122.97045,37.74782],[-122.97326,37.74865],[-122.97545,37.75258],[-122.98143,37.75892],[-122.98741,37.76387],[-122.99754,37.77078],[-123.01059,37.77493],[-123.01697,37.77607],[-123.02585,37.77709],[-123.03144,37.77715],[-123.03384,37.77838],[-123.0351,37.78043],[-123.03873,37.78888],[-123.04882,37.79982],[-123.07049,37.81383],[-123.08165,37.81815],[-123.09526,37.82188],[-123.11829,37.82306],[-123.12611,37.82166],[-123.13227,37.81968],[-123.13944,37.81672],[-123.14721,37.81195],[-123.16094,37.802],[-123.16601,37.79689],[-123.16911,37.79237],[-123.17383,37.77573]]],[[[-119.11717,33.5056],[-119.11895,33.50002],[-119.10721,33.50002],[-119.10794,33.49518],[-119.10747,33.49541],[-119.10836,33.48578],[-119.1092,33.48007],[-119.10957,33.47428],[-119.10909,33.46894],[-119.10965,33.46229],[-119.1088,33.45632],[-119.10888,33.45115],[-119.10615,33.44501],[-119.10076,33.43524],[-119.09413,33.42687],[-119.08651,33.42139],[-119.07851,33.41676],[-119.07189,33.4138],[-119.05307,33.41102],[-119.03963,33.41222],[-119.02704,33.41287],[-119.00952,33.41677],[-119.00093,33.4213],[-119.00093,33.41849],[-118.99598,33.41996],[-118.98873,33.42344],[-118.98051,33.42859],[-118.97848,33.43111],[-118.97268,33.44317],[-118.96983,33.45289],[-118.96676,33.45791],[-118.96375,33.46683],[-118.96273,33.4733],[-118.96276,33.48521],[-118.96602,33.50002],[-118.96831,33.50556],[-118.97101,33.51066],[-118.97289,33.51384],[-118.98215,33.52426],[-118.99005,33.53029],[-119.00093,33.5359],[-119.00807,33.53756],[-119.01735,33.53919],[-119.02394,33.54],[-119.03074,33.54012],[-119.03625,33.53962],[-119.04706,33.53722],[-119.0508,33.53716],[-119.05394,33.53676],[-119.05655,33.53603],[-119.06616,33.53671],[-119.07014,33.53642],[-119.0765,33.53515],[-119.08374,33.53291],[-119.09049,33.5303],[-119.0987,33.52644],[-119.10421,33.52289],[-119.10872,33.51926],[-119.11166,33.51547],[-119.11508,33.50986],[-119.11717,33.5056]]],[[[-118.6682,33.48594],[-118.6676,33.47749],[-118.66592,33.46733],[-118.66175,33.45632],[-118.65506,33.44531],[-118.63073,33.4232],[-118.62592,33.41507],[-118.62592,33.41426],[-118.61857,33.40619],[-118.60723,33.39829],[-118.59108,33.39087],[-118.5732,33.38348],[-118.56363,33.38103],[-118.55338,33.38023],[-118.54793,33.3768],[-118.54858,33.37503],[-118.54961,33.37503],[-118.55119,33.36935],[-118.55097,33.36161],[-118.54961,33.35065],[-118.54748,33.34048],[-118.54252,33.33105],[-118.54085,33.32509],[-118.53488,33.31518],[-118.51804,33.29665],[-118.51039,33.28966],[-118.50368,33.28531],[-118.48669,33.27691],[-118.47146,33.27289],[-118.45507,33.26902],[-118.43765,33.26702],[-118.42752,33.26596],[-118.41205,33.26628],[-118.40256,33.26794],[-118.39414,33.26591],[-118.38913,33.2652],[-118.38559,33.26536],[-118.38149,33.2623],[-118.36331,33.25507],[-118.34377,33.25003],[-118.34147,33.25003],[-118.33475,33.24861],[-118.32799,33.24808],[-118.31862,33.24847],[-118.30284,33.25101],[-118.29246,33.25408],[-118.2807,33.25909],[-118.26918,33.26568],[-118.25918,33.2725],[-118.2509,33.28144],[-118.2509,33.28047],[-118.24908,33.28414],[-118.24594,33.29106],[-118.2427,33.30311],[-118.24105,33.31303],[-118.24129,33.32302],[-118.2451,33.33834],[-118.2509,33.35165],[-118.25138,33.3534],[-118.25771,33.36413],[-118.26275,33.37044],[-118.26818,33.37502],[-118.27132,33.37669],[-118.27721,33.38074],[-118.28581,33.38984],[-118.29467,33.39759],[-118.3041,33.40363],[-118.30659,33.40716],[-118.30859,33.41636],[-118.31095,33.42514],[-118.31635,33.43414],[-118.32465,33.44198],[-118.33277,33.44804],[-118.34206,33.45388],[-118.35092,33.45782],[-118.35939,33.46492],[-118.36922,33.469],[-118.37591,33.4711],[-118.38605,33.47345],[-118.40323,33.47927],[-118.41187,33.48078],[-118.42084,33.48178],[-118.42287,33.48387],[-118.42709,33.48716],[-118.43243,33.48894],[-118.43684,33.48944],[-118.44755,33.50002],[-118.45683,33.50687],[-118.46285,33.51043],[-118.46896,33.513],[-118.47728,33.51543],[-118.48262,33.51606],[-118.48788,33.51615],[-118.49334,33.51573],[-118.50091,33.52163],[-118.50676,33.52491],[-118.51765,33.52869],[-118.52324,33.53015],[-118.52938,33.53118],[-118.53364,33.53144],[-118.5466,33.53084],[-118.55093,33.53019],[-118.55775,33.52833],[-118.56317,33.52929],[-118.56719,33.52948],[-118.5753,33.52926],[-118.57914,33.52841],[-118.58582,33.53088],[-118.58972,33.53198],[-118.59365,33.53224],[-118.60501,33.53221],[-118.61216,33.53185],[-118.61893,33.53066],[-118.62592,33.52898],[-118.6384,33.52403],[-118.64406,33.52128],[-118.64786,33.51821],[-118.65573,33.51082],[-118.65992,33.50576],[-118.66215,33.50172],[-118.66371,33.50002],[-118.66672,33.49349],[-118.6682,33.48594]]],[[[-118.6782,33.03973],[-118.67855,33.02636],[-118.67594,33.01542],[-118.67484,33.01214],[-118.67102,33.00585],[-118.67017,33.00003],[-118.64473,33.00003],[-118.64343,32.99284],[-118.63919,32.97811],[-118.63771,32.97536],[-118.63552,32.9656],[-118.62957,32.95363],[-118.62592,32.94723],[-118.62212,32.94143],[-118.6186,32.93685],[-118.61469,32.93281],[-118.6088,32.92769],[-118.60668,32.92097],[-118.60547,32.9182],[-118.6057,32.91562],[-118.60529,32.90854],[-118.60434,32.9066],[-118.60352,32.90356],[-118.59693,32.89047],[-118.59208,32.88506],[-118.58794,32.87884],[-118.58132,32.87152],[-118.57721,32.86802],[-118.57506,32.86573],[-118.57138,32.8593],[-118.56253,32.84944],[-118.55945,32.84348],[-118.55546,32.83317],[-118.55319,32.8288],[-118.54673,32.82068],[-118.5382,32.81277],[-118.53509,32.81058],[-118.52983,32.80789],[-118.52043,32.80196],[-118.51581,32.79957],[-118.50765,32.79688],[-118.49967,32.79104],[-118.49421,32.7855],[-118.4888,32.78137],[-118.48497,32.77916],[-118.48167,32.77472],[-118.47793,32.77062],[-118.47391,32.76682],[-118.46471,32.76018],[-118.45381,32.75511],[-118.43885,32.75039],[-118.43654,32.75004],[-118.4198,32.75004],[-118.40832,32.75191],[-118.39953,32.75523],[-118.39256,32.7585],[-118.38535,32.76356],[-118.38296,32.76585],[-118.38121,32.76808],[-118.37838,32.77023],[-118.371,32.7682],[-118.3591,32.76616],[-118.35349,32.76581],[-118.34319,32.76706],[-118.33197,32.77057],[-118.32382,32.77351],[-118.3128,32.78082],[-118.30285,32.78885],[-118.29847,32.79426],[-118.29584,32.79826],[-118.29281,32.8038],[-118.28991,32.81053],[-118.28895,32.81615],[-118.28878,32.82083],[-118.28989,32.82938],[-118.2924,32.83639],[-118.29725,32.84509],[-118.31034,32.8595],[-118.31739,32.86376],[-118.32034,32.86626],[-118.32571,32.87173],[-118.32972,32.87504],[-118.3289,32.87504],[-118.33746,32.87975],[-118.35639,32.8945],[-118.36252,32.90012],[-118.36992,32.90507],[-118.38157,32.91185],[-118.39079,32.91784],[-118.39694,32.92255],[-118.40604,32.93179],[-118.4096,32.93455],[-118.41128,32.93647],[-118.41874,32.94211],[-118.42334,32.94648],[-118.42769,32.94958],[-118.44886,32.96175],[-118.4503,32.9637],[-118.4573,32.97092],[-118.46018,32.97525],[-118.47119,32.98912],[-118.47779,32.99577],[-118.48141,33.00003],[-118.47995,33.00003],[-118.48475,33.00462],[-118.48714,33.00818],[-118.4895,33.01063],[-118.49113,33.01792],[-118.49558,33.02634],[-118.50091,33.03059],[-118.50766,33.03788],[-118.50927,33.04157],[-118.51497,33.04989],[-118.52373,33.05997],[-118.5421,33.07379],[-118.55263,33.07863],[-118.57834,33.08624],[-118.58953,33.08711],[-118.60226,33.08605],[-118.61962,33.08672],[-118.63264,33.08454],[-118.6413,33.08188],[-118.65436,33.07495],[-118.66385,33.06685],[-118.67078,33.05797],[-118.67561,33.04935],[-118.6782,33.03973]]],[[[-119.49229,33.98321],[-119.48532,33.97772],[-119.47265,33.97065],[-119.45448,33.96331],[-119.44082,33.95893],[-119.43296,33.9559],[-119.42289,33.95411],[-119.417,33.95377],[-119.41134,33.95541],[-119.40293,33.95379],[-119.39618,33.95386],[-119.39337,33.95469],[-119.3894,33.95327],[-119.38046,33.95361],[-119.36976,33.95636],[-119.36283,33.95876],[-119.35666,33.96149],[-119.35186,33.96445],[-119.34154,33.96543],[-119.33279,33.96772],[-119.31844,33.9749],[-119.31161,33.98002],[-119.30409,33.98654],[-119.29877,33.99345],[-119.29624,33.99724],[-119.29647,34.0],[-119.29405,34.01108],[-119.29311,34.02015],[-119.2944,34.0275],[-119.29764,34.03658],[-119.30515,34.04745],[-119.31209,34.05439],[-119.32115,34.06061],[-119.33093,34.06506],[-119.34246,34.06896],[-119.35639,34.07081],[-119.36788,34.07042],[-119.38975,34.06603],[-119.39701,34.06379],[-119.40935,34.06679],[-119.42373,34.06769],[-119.43732,34.06772],[-119.45126,34.06644],[-119.46784,34.06293],[-119.47731,34.07183],[-119.48875,34.0792],[-119.49749,34.08275],[-119.50095,34.08584],[-119.51211,34.09346],[-119.51998,34.09722],[-119.52459,34.09871],[-119.52894,34.1012],[-119.53842,34.10541],[-119.54825,34.10778],[-119.55743,34.1086],[-119.56552,34.10881],[-119.57412,34.10811],[-119.58197,34.10573],[-119.59056,34.10564],[-119.59989,34.10401],[-119.61427,34.09943],[-119.62597,34.0927],[-119.62811,34.09007],[-119.62947,34.08971],[-119.63523,34.08673],[-119.64517,34.08005],[-119.6512,34.07526],[-119.65493,34.07122],[-119.67895,34.0865],[-119.68607,34.09031],[-119.69301,34.09485],[-119.70111,34.09826],[-119.70946,34.10066],[-119.71804,34.10175],[-119.72597,34.10209],[-119.73675,34.10734],[-119.74522,34.11092],[-119.75098,34.11258],[-119.75098,34.11172],[-119.76084,34.11262],[-119.76903,34.11194],[-119.78301,34.10908],[-119.78918,34.1076],[-119.7926,34.10637],[-119.79813,34.10876],[-119.81157,34.11341],[-119.82922,34.1187],[-119.83796,34.12019],[-119.85209,34.12096],[-119.85907,34.1229],[-119.87598,34.12623],[-119.87598,34.12557],[-119.87988,34.12608],[-119.88832,34.12637],[-119.89418,34.12577],[-119.90558,34.12935],[-119.91336,34.13015],[-119.9288,34.1299],[-119.93615,34.12866],[-119.94784,34.125],[-119.96547,34.11256],[-119.96918,34.10807],[-119.97236,34.10335],[-119.97417,34.09942],[-119.97439,34.09674],[-119.98195,34.08938],[-119.98544,34.08024],[-119.98995,34.07037],[-119.99164,34.06487],[-120.00096,34.07682],[-120.00096,34.07867],[-120.00447,34.08043],[-120.01021,34.08404],[-120.0195,34.08772],[-120.02649,34.08901],[-120.04515,34.09061],[-120.06333,34.08971],[-120.071,34.08845],[-120.08028,34.0864],[-120.08585,34.0842],[-120.09247,34.08051],[-120.09864,34.07663],[-120.10292,34.07449],[-120.1089,34.07612],[-120.11225,34.07648],[-120.11496,34.07805],[-120.12013,34.07894],[-120.13501,34.07881],[-120.13992,34.07858],[-120.14523,34.07774],[-120.15011,34.07607],[-120.15901,34.0757],[-120.17113,34.07332],[-120.18546,34.06622],[-120.19411,34.05872],[-120.19758,34.05815],[-120.20611,34.06022],[-120.21038,34.06085],[-120.22488,34.06131],[-120.231,34.06114],[-120.25097,34.05891],[-120.25285,34.05803],[-120.2558,34.05985],[-120.25787,34.06221],[-120.26241,34.06508],[-120.27158,34.07414],[-120.27245,34.07811],[-120.27428,34.0818],[-120.27868,34.08781],[-120.28465,34.09475],[-120.29114,34.09965],[-120.29779,34.10412],[-120.31171,34.10951],[-120.32109,34.11045],[-120.32434,34.1138],[-120.33317,34.11922],[-120.33856,34.12169],[-120.34271,34.1315],[-120.3465,34.13668],[-120.35049,34.14145],[-120.35516,34.14502],[-120.36198,34.14878],[-120.36875,34.15104],[-120.38862,34.15505],[-120.39194,34.15671],[-120.40117,34.15873],[-120.41103,34.16008],[-120.41879,34.16057],[-120.4266,34.15925],[-120.43272,34.15748],[-120.441,34.15449],[-120.44907,34.15059],[-120.45701,34.14576],[-120.47165,34.1341],[-120.47731,34.13818],[-120.48143,34.14217],[-120.48691,34.14508],[-120.49194,34.14712],[-120.49738,34.14989],[-120.51604,34.1528],[-120.52686,34.15203],[-120.53812,34.15034],[-120.5487,34.14642],[-120.561,34.14066],[-120.56785,34.13562],[-120.57251,34.13025],[-120.57509,34.12647],[-120.57905,34.11859],[-120.58226,34.10752],[-120.58155,34.09149],[-120.57829,34.0842],[-120.57381,34.07597],[-120.567,34.06864],[-120.55939,34.06238],[-120.55005,34.05729],[-120.53106,34.05169],[-120.52339,34.05113],[-120.52645,34.04146],[-120.52585,34.03299],[-120.52314,34.02282],[-120.51878,34.01408],[-120.5062,34.0],[-120.50308,33.99735],[-120.50099,33.9963],[-120.50099,33.9955],[-120.49773,33.9912],[-120.48815,33.98428],[-120.48077,33.98026],[-120.46678,33.97612],[-120.45579,33.97627],[-120.44619,33.97737],[-120.43998,33.97554],[-120.43218,33.9747],[-120.42259,33.97494],[-120.41177,33.97705],[-120.40569,33.97311],[-120.39564,33.96743],[-120.3848,33.96462],[-120.36707,33.96104],[-120.35863,33.96139],[-120.34687,33.96349],[-120.33225,33.96843],[-120.32704,33.96673],[-120.31739,33.96637],[-120.3082,33.96641],[-120.29897,33.96846],[-120.29187,33.96224],[-120.28559,33.9575],[-120.28003,33.95394],[-120.27938,33.94866],[-120.2731,33.92958],[-120.26449,33.91892],[-120.25639,33.91167],[-120.25097,33.90844],[-120.24752,33.90669],[-120.23872,33.90411],[-120.23637,33.90014],[-120.22963,33.89233],[-120.22113,33.88419],[-120.21495,33.88078],[-120.20763,33.87891],[-120.20238,33.87598],[-120.19951,33.875],[-120.19339,33.86853],[-120.18822,33.86636],[-120.183,33.86629],[-120.17695,33.86155],[-120.17032,33.85742],[-120.16551,33.85564],[-120.15708,33.85343],[-120.14955,33.84796],[-120.13993,33.8448],[-120.12596,33.84235],[-120.11727,33.84158],[-120.10409,33.8424],[-120.09045,33.84632],[-120.08011,33.85051],[-120.07065,33.85649],[-120.05844,33.85964],[-120.04791,33.86359],[-120.04253,33.86432],[-120.03454,33.86448],[-120.02781,33.86651],[-120.01934,33.87055],[-120.01541,33.87515],[-120.00862,33.87884],[-120.00096,33.88525],[-119.98084,33.89232],[-119.97239,33.89138],[-119.96268,33.89244],[-119.95029,33.89438],[-119.93919,33.89864],[-119.9288,33.90547],[-119.91893,33.91435],[-119.91102,33.9239],[-119.90673,33.93238],[-119.90476,33.93967],[-119.89624,33.93574],[-119.89069,33.9308],[-119.88405,33.92598],[-119.87596,33.92138],[-119.86195,33.91084],[-119.85522,33.90749],[-119.84744,33.90423],[-119.83442,33.90079],[-119.82321,33.89939],[-119.81022,33.90132],[-119.797,33.90634],[-119.78937,33.91013],[-119.78365,33.90998],[-119.77832,33.91061],[-119.77283,33.91241],[-119.76765,33.91143],[-119.75856,33.9108],[-119.75096,33.9114],[-119.7455,33.91141],[-119.74134,33.91262],[-119.73142,33.91027],[-119.71883,33.90963],[-119.70749,33.91039],[-119.69318,33.91368],[-119.6876,33.91564],[-119.68059,33.91949],[-119.67575,33.92058],[-119.66914,33.92313],[-119.66116,33.92834],[-119.65356,33.93009],[-119.64742,33.93281],[-119.63673,33.93828],[-119.62596,33.93604],[-119.61853,33.93588],[-119.6137,33.93644],[-119.61037,33.9372],[-119.60208,33.93677],[-119.59069,33.93958],[-119.58159,33.93967],[-119.57245,33.94114],[-119.56329,33.94495],[-119.55047,33.94495],[-119.53895,33.94766],[-119.53283,33.94987],[-119.52331,33.95493],[-119.51224,33.9622],[-119.50095,33.97148],[-119.49695,33.97635],[-119.49229,33.98321]]],[[[-119.63607,33.28071],[-119.6363,33.27304],[-119.63472,33.26544],[-119.63284,33.25902],[-119.63105,33.25549],[-119.63182,33.25003],[-119.63128,33.24497],[-119.62783,33.23695],[-119.62594,33.23455],[-119.62519,33.23247],[-119.62356,33.23041],[-119.61992,33.22683],[-119.61949,33.22501],[-119.61824,33.22248],[-119.61481,33.21725],[-119.61147,33.21273],[-119.60528,33.20692],[-119.59395,33.199],[-119.58909,33.19673],[-119.58726,33.19553],[-119.58097,33.19019],[-119.57832,33.1885],[-119.57419,33.18648],[-119.56932,33.18462],[-119.56224,33.18248],[-119.55319,33.18126],[-119.55007,33.18028],[-119.54126,33.17647],[-119.52671,33.17266],[-119.52286,33.17088],[-119.512,33.16776],[-119.51025,33.16742],[-119.49142,33.16701],[-119.47874,33.16367],[-119.47649,33.16349],[-119.47223,33.1644],[-119.44497,33.16527],[-119.43372,33.16699],[-119.39454,33.18084],[-119.38147,33.18947],[-119.37594,33.19219],[-119.36845,33.2026],[-119.36244,33.21482],[-119.3607,33.22145],[-119.36018,33.22832],[-119.36013,33.23487],[-119.36093,33.24206],[-119.36212,33.24522],[-119.36472,33.25003],[-119.36723,33.2534],[-119.37594,33.26323],[-119.37594,33.26476],[-119.37973,33.26763],[-119.40539,33.28351],[-119.42618,33.29894],[-119.43,33.30103],[-119.44327,33.30574],[-119.4713,33.31683],[-119.49512,33.32715],[-119.50094,33.32911],[-119.51914,33.3337],[-119.52531,33.33486],[-119.52965,33.33522],[-119.53418,33.33526],[-119.54354,33.33416],[-119.5494,33.33279],[-119.56493,33.32764],[-119.57491,33.32828],[-119.58268,33.32779],[-119.58815,33.32697],[-119.59252,33.32582],[-119.59922,33.32328],[-119.60929,33.31823],[-119.61453,33.3148],[-119.62165,33.30925],[-119.62594,33.30504],[-119.62908,33.29934],[-119.63382,33.28932],[-119.63607,33.28071]]]]}}
