{"type":"FeatureCollection","name":"California counties","attribution":"California county boundaries \u2014 public-domain cartographic data (via codeforgermany/click_that_hood, US Census lineage).","features":[{"type":"Feature","properties":{"name":"Alameda"},"geometry":{"type":"MultiPolygon","coordinates":[[[[-122.313,37.897],[-122.264,37.904],[-122.167,37.813],[-122.045,37.798],[-121.998,37.763],[-122.012,37.747],[-121.961,37.719],[-121.559,37.819],[-121.557,37.543],[-121.504,37.526],[-121.471,37.483],[-121.865,37.485],[-121.925,37.454],[-122.049,37.468],[-122.047,37.494],[-122.11,37.506],[-122.168,37.676],[-122.261,37.74],[-122.211,37.738],[-122.211,37.751],[-122.245,37.785],[-122.325,37.8],[-122.314,37.828],[-122.296,37.83],[-122.313,37.897]]],[[[-122.328,37.781],[-122.331,37.797],[-122.281,37.792],[-122.225,37.755],[-122.328,37.781]]]]}},{"type":"Feature","properties":{"name":"Alpine"},"geometry":{"type":"Polygon","coordinates":[[[-120.072,38.703],[-119.948,38.782],[-119.907,38.855],[-119.881,38.864],[-119.88,38.899],[-119.904,38.933],[-119.58,38.706],[-119.609,38.666],[-119.621,38.614],[-119.557,38.502],[-119.543,38.5],[-119.569,38.434],[-119.562,38.411],[-119.622,38.394],[-119.607,38.366],[-119.628,38.359],[-119.639,38.327],[-119.7,38.365],[-119.699,38.408],[-119.712,38.418],[-119.801,38.401],[-119.885,38.356],[-120.054,38.456],[-120.073,38.447],[-120.072,38.703]]]}},{"type":"Feature","properties":{"name":"Amador"},"geometry":{"type":"Polygon","coordinates":[[[-121.027,38.489],[-121.028,38.508],[-121.009,38.518],[-120.941,38.529],[-120.925,38.516],[-120.841,38.556],[-120.722,38.547],[-120.677,38.518],[-120.606,38.502],[-120.317,38.545],[-120.234,38.588],[-120.213,38.629],[-120.14,38.638],[-120.111,38.706],[-120.072,38.703],[-120.072,38.51],[-120.126,38.496],[-120.206,38.501],[-120.331,38.465],[-120.423,38.473],[-120.461,38.446],[-120.5,38.448],[-120.523,38.423],[-120.601,38.4],[-120.647,38.335],[-120.738,38.308],[-120.754,38.288],[-120.819,38.282],[-120.894,38.221],[-120.995,38.225],[-121.027,38.3],[-121.027,38.489]]]}},{"type":"Feature","properties":{"name":"Butte"},"geometry":{"type":"Polygon","coordinates":[[[-121.879,39.304],[-121.908,39.304],[-121.871,39.45],[-121.877,39.51],[-121.857,39.537],[-121.994,39.534],[-122.003,39.573],[-121.98,39.619],[-121.992,39.63],[-121.967,39.652],[-121.996,39.664],[-121.946,39.69],[-121.948,39.732],[-121.968,39.722],[-122.025,39.768],[-122.024,39.798],[-122.059,39.807],[-122.069,39.841],[-122.045,39.884],[-121.777,39.889],[-121.702,39.984],[-121.646,39.983],[-121.636,40.026],[-121.596,40.058],[-121.586,40.101],[-121.511,40.101],[-121.481,40.122],[-121.453,40.122],[-121.437,40.152],[-121.405,40.152],[-121.405,40.116],[-121.376,40.109],[-121.367,40.072],[-121.4,40.052],[-121.4,40.031],[-121.419,40.016],[-121.411,39.915],[-121.43,39.915],[-121.43,39.9],[-121.411,39.9],[-121.412,39.871],[-121.361,39.855],[-121.351,39.826],[-121.332,39.826],[-121.286,39.768],[-121.211,39.726],[-121.209,39.7],[-121.136,39.657],[-121.137,39.628],[-121.098,39.621],[-121.08,39.585],[-121.107,39.585],[-121.107,39.567],[-121.15,39.555],[-121.159,39.52],[-121.305,39.52],[-121.373,39.365],[-121.407,39.34],[-121.563,39.305],[-121.612,39.317],[-121.624,39.296],[-121.879,39.304]]]}},{"type":"Feature","properties":{"name":"Calaveras"},"geometry":{"type":"Polygon","coordinates":[[[-120.876,38.029],[-120.939,38.088],[-120.995,38.225],[-120.894,38.221],[-120.819,38.282],[-120.754,38.288],[-120.738,38.308],[-120.647,38.335],[-120.601,38.4],[-120.523,38.423],[-120.5,38.448],[-120.461,38.446],[-120.423,38.473],[-120.331,38.465],[-120.206,38.501],[-120.126,38.496],[-120.072,38.51],[-120.073,38.447],[-120.054,38.456],[-120.02,38.434],[-120.182,38.366],[-120.41,38.103],[-120.467,38.014],[-120.535,37.991],[-120.528,37.982],[-120.543,37.976],[-120.513,37.958],[-120.542,37.92],[-120.634,37.861],[-120.653,37.831],[-120.876,38.029]]]}},{"type":"Feature","properties":{"name":"Colusa"},"geometry":{"type":"Polygon","coordinates":[[[-122.249,39.385],[-122.136,39.385],[-122.136,39.414],[-122.009,39.414],[-122.01,39.384],[-121.889,39.383],[-121.908,39.304],[-121.948,39.24],[-121.928,39.199],[-121.943,39.185],[-121.917,39.147],[-121.94,39.141],[-121.912,39.124],[-121.889,39.072],[-121.838,39.063],[-121.826,39.011],[-121.795,38.996],[-121.835,38.967],[-121.835,38.924],[-122.34,38.924],[-122.373,38.94],[-122.409,38.963],[-122.413,39.02],[-122.491,39.053],[-122.501,39.121],[-122.475,39.145],[-122.477,39.174],[-122.515,39.209],[-122.665,39.218],[-122.757,39.284],[-122.775,39.312],[-122.743,39.368],[-122.785,39.383],[-122.249,39.385]]]}},{"type":"Feature","properties":{"name":"Contra Costa"},"geometry":{"type":"MultiPolygon","coordinates":[[[[-121.615,38.1],[-121.579,38.092],[-121.584,38.063],[-121.647,38.057],[-121.645,38.084],[-121.615,38.1]]],[[[-121.572,38.018],[-121.58,38.031],[-121.565,38.029],[-121.572,38.018]]],[[[-121.582,37.986],[-121.556,37.924],[-121.578,37.858],[-121.552,37.86],[-121.537,37.845],[-121.554,37.818],[-121.961,37.719],[-122.012,37.747],[-121.998,37.763],[-122.045,37.798],[-122.186,37.821],[-122.224,37.878],[-122.264,37.904],[-122.386,37.908],[-122.429,37.963],[-122.401,37.953],[-122.359,37.991],[-122.367,38.012],[-122.3,38.01],[-122.244,38.058],[-122.191,38.052],[-122.146,38.022],[-122.023,38.058],[-121.71,38.006],[-121.686,38.019],[-121.724,38.027],[-121.674,38.058],[-121.608,38.019],[-121.585,38.03],[-121.582,37.986]]],[[[-121.675,38.089],[-121.647,38.086],[-121.649,38.057],[-121.676,38.061],[-121.675,38.089]]],[[[-121.845,38.028],[-121.85,38.054],[-121.845,38.028]]],[[[-121.862,38.046],[-121.85,38.035],[-121.868,38.033],[-121.862,38.046]]]]}},{"type":"Feature","properties":{"name":"Del Norte"},"geometry":{"type":"Polygon","coordinates":[[[-123.518,42.001],[-123.534,41.991],[-123.533,41.955],[-123.565,41.903],[-123.594,41.905],[-123.614,41.881],[-123.636,41.888],[-123.671,41.835],[-123.704,41.829],[-123.673,41.796],[-123.688,41.781],[-123.66,41.714],[-123.69,41.669],[-123.68,41.637],[-123.719,41.596],[-123.687,41.595],[-123.694,41.557],[-123.653,41.539],[-123.636,41.481],[-123.612,41.462],[-123.661,41.382],[-123.77,41.381],[-123.771,41.464],[-124.065,41.465],[-124.082,41.51],[-124.071,41.545],[-124.101,41.569],[-124.101,41.602],[-124.136,41.657],[-124.15,41.722],[-124.253,41.779],[-124.197,41.929],[-124.211,41.998],[-123.518,42.001]]]}},{"type":"Feature","properties":{"name":"Tuolumne"},"geometry":{"type":"Polygon","coordinates":[[[-120.5,38.007],[-120.467,38.014],[-120.271,38.271],[-120.159,38.385],[-120.02,38.434],[-119.885,38.356],[-119.801,38.401],[-119.712,38.418],[-119.699,38.408],[-119.7,38.365],[-119.639,38.327],[-119.652,38.286],[-119.613,38.261],[-119.622,38.253],[-119.605,38.234],[-119.624,38.229],[-119.633,38.199],[-119.586,38.184],[-119.576,38.158],[-119.542,38.145],[-119.508,38.137],[-119.504,38.158],[-119.469,38.128],[-119.464,38.098],[-119.446,38.093],[-119.429,38.116],[-119.35,38.086],[-119.305,38.024],[-119.322,37.969],[-119.308,37.947],[-119.264,37.927],[-119.266,37.914],[-119.211,37.899],[-119.204,37.83],[-119.217,37.818],[-119.202,37.799],[-119.269,37.739],[-119.288,37.745],[-119.312,37.794],[-119.355,37.812],[-119.352,37.826],[-119.405,37.837],[-119.425,37.866],[-119.492,37.863],[-119.534,37.903],[-119.566,37.902],[-119.599,37.86],[-119.646,37.847],[-119.667,37.801],[-119.808,37.755],[-119.828,37.768],[-119.852,37.758],[-119.865,37.772],[-119.938,37.763],[-120.08,37.829],[-120.127,37.782],[-120.176,37.798],[-120.189,37.768],[-120.24,37.764],[-120.261,37.734],[-120.345,37.726],[-120.31,37.656],[-120.326,37.649],[-120.387,37.685],[-120.394,37.668],[-120.375,37.652],[-120.388,37.634],[-120.653,37.831],[-120.634,37.861],[-120.542,37.92],[-120.513,37.958],[-120.543,37.976],[-120.516,38.004],[-120.505,37.991],[-120.5,38.007]]]}},{"type":"Feature","properties":{"name":"El Dorado"},"geometry":{"type":"Polygon","coordinates":[[[-120.184,39.031],[-120.144,39.067],[-120.002,39.067],[-120.001,39.0],[-119.888,38.918],[-119.878,38.874],[-119.907,38.855],[-119.948,38.782],[-120.072,38.703],[-120.111,38.706],[-120.14,38.638],[-120.213,38.629],[-120.234,38.588],[-120.302,38.549],[-120.606,38.502],[-120.677,38.518],[-120.722,38.547],[-120.802,38.559],[-120.841,38.556],[-120.925,38.516],[-120.941,38.529],[-121.028,38.508],[-121.119,38.717],[-121.141,38.712],[-121.089,38.827],[-121.058,38.848],[-121.06,38.884],[-121.04,38.916],[-120.939,38.936],[-120.937,38.964],[-120.859,38.952],[-120.812,39.0],[-120.758,39.008],[-120.563,38.914],[-120.494,38.942],[-120.435,39.028],[-120.184,39.031]]]}},{"type":"Feature","properties":{"name":"Fresno"},"geometry":{"type":"Polygon","coordinates":[[[-119.846,36.861],[-119.814,36.851],[-119.773,36.919],[-119.734,36.946],[-119.74,36.97],[-119.698,37.009],[-119.659,37.013],[-119.659,37.039],[-119.639,37.043],[-119.636,37.024],[-119.621,37.027],[-119.605,37.071],[-119.563,37.064],[-119.538,37.105],[-119.568,37.116],[-119.559,37.144],[-119.524,37.129],[-119.507,37.151],[-119.471,37.111],[-119.463,37.144],[-119.435,37.147],[-119.433,37.162],[-119.389,37.149],[-119.365,37.166],[-119.331,37.206],[-119.322,37.253],[-119.335,37.313],[-119.316,37.325],[-119.326,37.334],[-119.312,37.353],[-119.022,37.586],[-118.977,37.557],[-118.953,37.566],[-118.917,37.55],[-118.85,37.476],[-118.797,37.489],[-118.765,37.457],[-118.76,37.436],[-118.79,37.394],[-118.77,37.359],[-118.787,37.343],[-118.74,37.315],[-118.716,37.328],[-118.665,37.261],[-118.685,37.243],[-118.655,37.142],[-118.593,37.138],[-118.437,37.06],[-118.42,36.989],[-118.361,36.888],[-118.362,36.845],[-118.394,36.83],[-118.361,36.745],[-118.982,36.742],[-118.985,36.657],[-119.305,36.661],[-119.305,36.574],[-119.466,36.575],[-119.667,36.419],[-119.681,36.43],[-119.745,36.417],[-119.754,36.402],[-119.959,36.401],[-119.959,36.181],[-120.315,35.907],[-120.36,35.964],[-120.433,35.969],[-120.592,36.072],[-120.601,36.102],[-120.649,36.108],[-120.668,36.161],[-120.627,36.203],[-120.682,36.251],[-120.683,36.294],[-120.659,36.316],[-120.597,36.328],[-120.597,36.488],[-120.919,36.74],[-120.656,36.953],[-120.591,36.953],[-120.595,37.002],[-120.542,37.045],[-120.546,37.028],[-120.501,36.997],[-120.45,36.911],[-120.467,36.89],[-120.456,36.863],[-120.379,36.817],[-120.37,36.785],[-120.229,36.77],[-120.218,36.789],[-120.189,36.776],[-120.168,36.803],[-120.077,36.825],[-120.028,36.815],[-119.99,36.838],[-119.944,36.834],[-119.846,36.861]]]}},{"type":"Feature","properties":{"name":"Glenn"},"geometry":{"type":"Polygon","coordinates":[[[-122.893,39.709],[-122.913,39.709],[-122.913,39.748],[-122.938,39.748],[-122.938,39.798],[-122.024,39.798],[-122.025,39.768],[-121.968,39.722],[-121.948,39.732],[-121.942,39.698],[-121.994,39.671],[-121.967,39.652],[-121.992,39.63],[-121.98,39.619],[-122.003,39.573],[-121.994,39.534],[-121.857,39.537],[-121.877,39.51],[-121.871,39.45],[-121.89,39.385],[-122.01,39.384],[-122.009,39.414],[-122.136,39.414],[-122.136,39.385],[-122.739,39.383],[-122.736,39.581],[-122.885,39.58],[-122.893,39.709]]]}},{"type":"Feature","properties":{"name":"Humboldt"},"geometry":{"type":"Polygon","coordinates":[[[-123.544,40.661],[-123.544,40.002],[-124.023,40.001],[-124.073,40.023],[-124.087,40.078],[-124.111,40.104],[-124.188,40.131],[-124.363,40.26],[-124.348,40.315],[-124.369,40.384],[-124.409,40.443],[-124.387,40.51],[-124.234,40.756],[-124.266,40.703],[-124.232,40.69],[-124.212,40.707],[-124.221,40.741],[-124.198,40.753],[-124.183,40.8],[-124.083,40.831],[-124.1,40.861],[-124.149,40.865],[-124.196,40.789],[-124.221,40.76],[-124.228,40.769],[-124.15,40.893],[-124.117,40.996],[-124.112,41.026],[-124.158,41.068],[-124.166,41.13],[-124.143,41.145],[-124.107,41.231],[-124.065,41.465],[-123.771,41.464],[-123.77,41.381],[-123.501,41.383],[-123.474,41.366],[-123.478,41.328],[-123.442,41.26],[-123.455,41.237],[-123.408,41.18],[-123.433,41.162],[-123.429,41.118],[-123.446,41.089],[-123.464,41.093],[-123.464,41.076],[-123.423,41.058],[-123.406,41.014],[-123.481,40.916],[-123.56,40.95],[-123.592,40.927],[-123.624,40.929],[-123.56,40.83],[-123.544,40.661]]]}},{"type":"Feature","properties":{"name":"Inyo"},"geometry":{"type":"Polygon","coordinates":[[[-118.338,36.655],[-118.329,36.667],[-118.364,36.688],[-118.335,36.705],[-118.34,36.729],[-118.369,36.75],[-118.394,36.83],[-118.362,36.845],[-118.361,36.888],[-118.42,36.989],[-118.437,37.06],[-118.593,37.138],[-118.644,37.138],[-118.667,37.155],[-118.685,37.243],[-118.665,37.261],[-118.716,37.328],[-118.74,37.315],[-118.787,37.343],[-118.77,37.369],[-118.79,37.394],[-118.76,37.436],[-118.775,37.463],[-117.833,37.465],[-116.874,36.752],[-115.648,35.809],[-115.736,35.809],[-115.736,35.794],[-118.008,35.789],[-118.005,35.863],[-117.981,35.867],[-117.983,35.927],[-118.018,35.961],[-118.004,35.984],[-118.034,36.009],[-118.05,36.077],[-118.067,36.092],[-118.062,36.174],[-118.102,36.209],[-118.128,36.28],[-118.1,36.346],[-118.153,36.38],[-118.16,36.394],[-118.138,36.418],[-118.212,36.437],[-118.25,36.482],[-118.235,36.494],[-118.239,36.521],[-118.291,36.559],[-118.289,36.591],[-118.275,36.597],[-118.338,36.655]]]}},{"type":"Feature","properties":{"name":"Lake"},"geometry":{"type":"Polygon","coordinates":[[[-122.411,39.01],[-122.409,38.963],[-122.34,38.924],[-122.404,38.925],[-122.422,38.901],[-122.392,38.867],[-122.404,38.856],[-122.373,38.817],[-122.379,38.802],[-122.398,38.804],[-122.464,38.705],[-122.627,38.668],[-122.647,38.706],[-122.692,38.711],[-122.749,38.804],[-122.821,38.858],[-122.895,38.881],[-122.911,38.902],[-122.949,38.9],[-122.949,38.925],[-122.978,38.947],[-122.987,38.997],[-123.028,38.997],[-123.056,39.021],[-123.065,39.064],[-123.093,39.072],[-123.078,39.174],[-123.046,39.173],[-123.013,39.236],[-122.995,39.236],[-123.005,39.278],[-123.02,39.278],[-123.038,39.364],[-123.057,39.379],[-123.056,39.408],[-123.075,39.408],[-123.063,39.504],[-122.89,39.529],[-122.885,39.58],[-122.736,39.581],[-122.739,39.383],[-122.785,39.383],[-122.742,39.359],[-122.775,39.312],[-122.665,39.218],[-122.515,39.209],[-122.477,39.174],[-122.475,39.145],[-122.501,39.121],[-122.491,39.053],[-122.411,39.01]]]}},{"type":"Feature","properties":{"name":"San Diego"},"geometry":{"type":"Polygon","coordinates":[[[-117.596,33.386],[-117.578,33.454],[-117.51,33.472],[-117.51,33.505],[-117.364,33.505],[-117.371,33.491],[-117.242,33.449],[-117.241,33.432],[-116.085,33.426],[-116.081,33.075],[-116.103,33.075],[-116.106,32.619],[-117.124,32.534],[-117.136,32.614],[-117.161,32.664],[-117.227,32.693],[-117.205,32.715],[-117.166,32.698],[-117.133,32.611],[-117.116,32.599],[-117.098,32.62],[-117.129,32.684],[-117.173,32.724],[-117.213,32.728],[-117.236,32.714],[-117.245,32.666],[-117.253,32.752],[-117.209,32.788],[-117.23,32.795],[-117.235,32.78],[-117.28,32.821],[-117.282,32.84],[-117.251,32.876],[-117.255,32.906],[-117.28,33.012],[-117.326,33.117],[-117.477,33.304],[-117.596,33.386]]]}},{"type":"Feature","properties":{"name":"San Francisco"},"geometry":{"type":"MultiPolygon","coordinates":[[[[-122.393,37.708],[-122.503,37.708],[-122.515,37.781],[-122.488,37.789],[-122.478,37.811],[-122.403,37.806],[-122.372,37.734],[-122.357,37.729],[-122.393,37.708]]],[[[-122.37,37.814],[-122.369,37.831],[-122.37,37.814]]]]}},{"type":"Feature","properties":{"name":"Sierra"},"geometry":{"type":"Polygon","coordinates":[[[-120.655,39.694],[-120.654,39.707],[-120.016,39.709],[-120.016,39.722],[-120.001,39.722],[-120.004,39.445],[-120.505,39.446],[-120.535,39.464],[-120.556,39.513],[-120.656,39.526],[-120.757,39.452],[-120.979,39.418],[-121.022,39.392],[-121.034,39.515],[-121.058,39.54],[-121.024,39.559],[-121.009,39.639],[-120.949,39.673],[-120.934,39.739],[-120.913,39.757],[-120.873,39.776],[-120.813,39.742],[-120.792,39.71],[-120.75,39.72],[-120.681,39.677],[-120.655,39.694]]]}},{"type":"Feature","properties":{"name":"Siskiyou"},"geometry":{"type":"Polygon","coordinates":[[[-121.448,41.998],[-121.446,41.183],[-122.498,41.183],[-122.523,41.214],[-122.508,41.245],[-122.513,41.284],[-122.479,41.32],[-122.57,41.368],[-122.591,41.326],[-122.646,41.324],[-122.657,41.291],[-122.712,41.275],[-122.725,41.247],[-122.777,41.231],[-122.802,41.203],[-122.894,41.203],[-122.936,41.177],[-122.963,41.179],[-122.952,41.151],[-122.971,41.09],[-122.923,41.072],[-122.902,41.015],[-122.935,40.992],[-122.98,41.014],[-123.037,41.004],[-123.055,41.047],[-123.109,41.075],[-123.245,41.078],[-123.295,41.141],[-123.354,41.163],[-123.381,41.151],[-123.455,41.236],[-123.442,41.26],[-123.463,41.284],[-123.483,41.354],[-123.474,41.366],[-123.489,41.378],[-123.661,41.382],[-123.612,41.462],[-123.636,41.481],[-123.653,41.539],[-123.694,41.557],[-123.687,41.595],[-123.719,41.596],[-123.68,41.637],[-123.69,41.669],[-123.66,41.714],[-123.688,41.781],[-123.673,41.796],[-123.704,41.829],[-123.671,41.835],[-123.636,41.888],[-123.614,41.881],[-123.594,41.905],[-123.565,41.903],[-123.533,41.955],[-123.534,41.991],[-123.518,42.001],[-122.378,42.01],[-121.448,41.998]]]}},{"type":"Feature","properties":{"name":"Solano"},"geometry":{"type":"MultiPolygon","coordinates":[[[[-121.886,38.539],[-121.784,38.523],[-121.712,38.538],[-121.695,38.523],[-121.694,38.314],[-121.593,38.313],[-121.614,38.198],[-121.662,38.182],[-121.707,38.112],[-121.802,38.063],[-121.843,38.077],[-121.893,38.054],[-121.913,38.083],[-121.973,38.073],[-122.013,38.094],[-121.984,38.114],[-122.003,38.139],[-122.046,38.137],[-122.131,38.043],[-122.153,38.043],[-122.188,38.071],[-122.199,38.061],[-122.242,38.078],[-122.276,38.066],[-122.311,38.109],[-122.399,38.143],[-122.407,38.156],[-122.195,38.155],[-122.215,38.18],[-122.194,38.214],[-122.197,38.258],[-122.217,38.262],[-122.188,38.272],[-122.206,38.316],[-122.065,38.316],[-122.073,38.361],[-122.125,38.424],[-122.103,38.513],[-122.057,38.517],[-122.012,38.489],[-121.94,38.533],[-121.886,38.539]]],[[[-122.0,38.082],[-122.017,38.075],[-122.024,38.091],[-122.0,38.082]]],[[[-121.911,38.065],[-121.898,38.05],[-121.929,38.052],[-121.911,38.065]]],[[[-121.731,38.083],[-121.715,38.101],[-121.715,38.085],[-121.731,38.083]]]]}},{"type":"Feature","properties":{"name":"Sonoma"},"geometry":{"type":"Polygon","coordinates":[[[-123.251,38.808],[-123.136,38.809],[-123.137,38.839],[-123.081,38.838],[-123.081,38.852],[-122.822,38.85],[-122.796,38.839],[-122.749,38.804],[-122.692,38.711],[-122.647,38.707],[-122.625,38.674],[-122.628,38.623],[-122.646,38.599],[-122.632,38.57],[-122.544,38.52],[-122.53,38.47],[-122.483,38.453],[-122.495,38.424],[-122.405,38.322],[-122.395,38.305],[-122.405,38.281],[-122.36,38.231],[-122.35,38.201],[-122.368,38.159],[-122.407,38.156],[-122.405,38.135],[-122.44,38.117],[-122.501,38.112],[-122.568,38.184],[-122.649,38.181],[-122.74,38.207],[-122.907,38.32],[-122.965,38.317],[-123.003,38.296],[-123.05,38.334],[-123.065,38.304],[-123.068,38.357],[-123.133,38.454],[-123.332,38.566],[-123.441,38.699],[-123.534,38.768],[-123.368,38.777],[-123.368,38.807],[-123.251,38.808]]]}},{"type":"Feature","properties":{"name":"Los Angeles"},"geometry":{"type":"MultiPolygon","coordinates":[[[[-118.945,34.046],[-118.941,34.075],[-118.789,34.168],[-118.668,34.168],[-118.668,34.24],[-118.632,34.24],[-118.637,34.292],[-118.887,34.802],[-118.855,34.803],[-118.854,34.818],[-117.667,34.823],[-117.667,34.558],[-117.646,34.289],[-117.73,34.021],[-117.768,34.024],[-117.767,34.005],[-117.785,34.005],[-117.803,33.976],[-117.783,33.946],[-117.976,33.946],[-117.977,33.903],[-118.059,33.846],[-118.099,33.777],[-118.092,33.758],[-118.115,33.746],[-118.122,33.761],[-118.191,33.76],[-118.185,33.733],[-118.227,33.77],[-118.251,33.77],[-118.274,33.751],[-118.271,33.72],[-118.294,33.705],[-118.361,33.737],[-118.411,33.743],[-118.428,33.774],[-118.393,33.805],[-118.391,33.838],[-118.462,33.971],[-118.546,34.039],[-118.745,34.032],[-118.809,34.002],[-118.854,34.034],[-118.945,34.046]]],[[[-118.431,33.427],[-118.368,33.407],[-118.305,33.309],[-118.325,33.299],[-118.374,33.32],[-118.466,33.326],[-118.489,33.357],[-118.487,33.418],[-118.574,33.441],[-118.594,33.467],[-118.538,33.476],[-118.494,33.441],[-118.477,33.448],[-118.431,33.427]]],[[[-118.55,33.003],[-118.496,32.933],[-118.351,32.818],[-118.394,32.824],[-118.428,32.804],[-118.5,32.852],[-118.605,33.03],[-118.575,33.034],[-118.55,33.003]]],[[[-118.241,33.734],[-118.258,33.729],[-118.241,33.734]]],[[[-118.27,33.726],[-118.27,33.749],[-118.225,33.768],[-118.27,33.726]]]]}},{"type":"Feature","properties":{"name":"Madera"},"geometry":{"type":"Polygon","coordinates":[[[-120.4,37.118],[-120.341,37.125],[-120.29,37.153],[-120.065,37.178],[-119.762,37.417],[-119.651,37.418],[-119.651,37.461],[-119.615,37.462],[-119.615,37.495],[-119.584,37.495],[-119.584,37.56],[-119.309,37.778],[-119.288,37.745],[-119.216,37.714],[-119.198,37.737],[-119.127,37.735],[-119.065,37.685],[-119.061,37.658],[-119.031,37.628],[-119.022,37.586],[-119.326,37.334],[-119.316,37.325],[-119.335,37.313],[-119.322,37.253],[-119.331,37.206],[-119.36,37.17],[-119.389,37.149],[-119.433,37.162],[-119.435,37.147],[-119.463,37.144],[-119.471,37.111],[-119.507,37.151],[-119.524,37.129],[-119.559,37.144],[-119.568,37.116],[-119.538,37.105],[-119.563,37.064],[-119.605,37.071],[-119.621,37.027],[-119.652,37.043],[-119.659,37.013],[-119.698,37.009],[-119.74,36.97],[-119.734,36.946],[-119.773,36.919],[-119.815,36.851],[-119.885,36.859],[-119.944,36.834],[-119.99,36.838],[-120.028,36.815],[-120.077,36.825],[-120.168,36.803],[-120.189,36.776],[-120.218,36.789],[-120.229,36.77],[-120.37,36.785],[-120.379,36.817],[-120.456,36.863],[-120.457,36.924],[-120.501,36.997],[-120.546,37.028],[-120.477,37.096],[-120.4,37.118]]]}},{"type":"Feature","properties":{"name":"Marin"},"geometry":{"type":"MultiPolygon","coordinates":[[[[-122.42,37.863],[-122.444,37.86],[-122.43,37.872],[-122.42,37.863]]],[[[-122.473,37.832],[-122.526,37.821],[-122.697,37.934],[-122.682,37.906],[-122.702,37.894],[-122.727,37.904],[-122.821,37.996],[-122.932,38.035],[-122.927,38.064],[-122.951,38.058],[-122.94,38.032],[-122.991,37.995],[-123.018,37.994],[-122.95,38.145],[-122.987,38.238],[-122.883,38.123],[-122.839,38.087],[-122.825,38.091],[-122.865,38.119],[-122.932,38.212],[-122.971,38.232],[-122.967,38.251],[-123.003,38.296],[-122.995,38.306],[-122.907,38.32],[-122.74,38.207],[-122.649,38.181],[-122.565,38.182],[-122.558,38.16],[-122.488,38.105],[-122.484,38.072],[-122.509,38.016],[-122.447,37.986],[-122.495,37.97],[-122.48,37.944],[-122.506,37.937],[-122.438,37.882],[-122.471,37.871],[-122.489,37.895],[-122.499,37.878],[-122.512,37.889],[-122.473,37.832]]]]}},{"type":"Feature","properties":{"name":"Mariposa"},"geometry":{"type":"Polygon","coordinates":[[[-120.323,37.527],[-120.388,37.633],[-120.375,37.652],[-120.394,37.68],[-120.316,37.653],[-120.306,37.665],[-120.345,37.726],[-120.261,37.734],[-120.24,37.764],[-120.189,37.768],[-120.176,37.798],[-120.127,37.782],[-120.08,37.829],[-119.938,37.763],[-119.865,37.772],[-119.852,37.758],[-119.828,37.768],[-119.808,37.755],[-119.667,37.801],[-119.646,37.847],[-119.599,37.86],[-119.566,37.902],[-119.534,37.903],[-119.492,37.863],[-119.425,37.866],[-119.405,37.837],[-119.352,37.826],[-119.355,37.812],[-119.312,37.794],[-119.309,37.778],[-119.584,37.56],[-119.584,37.495],[-119.615,37.495],[-119.615,37.462],[-119.651,37.461],[-119.651,37.418],[-119.762,37.417],[-120.052,37.183],[-120.093,37.223],[-120.178,37.262],[-120.188,37.301],[-120.283,37.424],[-120.28,37.458],[-120.323,37.527]]]}},{"type":"Feature","properties":{"name":"Mendocino"},"geometry":{"type":"Polygon","coordinates":[[[-123.063,39.504],[-123.075,39.408],[-123.056,39.408],[-123.057,39.379],[-123.038,39.364],[-123.02,39.278],[-123.005,39.278],[-122.995,39.236],[-123.013,39.236],[-123.046,39.173],[-123.078,39.174],[-123.093,39.072],[-123.065,39.064],[-123.056,39.021],[-123.028,38.997],[-122.987,38.997],[-122.978,38.947],[-122.949,38.925],[-122.949,38.9],[-122.894,38.896],[-122.895,38.881],[-122.822,38.85],[-123.081,38.852],[-123.081,38.838],[-123.137,38.839],[-123.136,38.809],[-123.368,38.807],[-123.368,38.777],[-123.497,38.779],[-123.529,38.764],[-123.728,38.919],[-123.739,38.953],[-123.697,39.005],[-123.693,39.058],[-123.72,39.134],[-123.772,39.195],[-123.778,39.242],[-123.804,39.279],[-123.796,39.303],[-123.81,39.304],[-123.805,39.327],[-123.828,39.349],[-123.815,39.444],[-123.768,39.552],[-123.789,39.603],[-123.786,39.66],[-123.832,39.731],[-123.852,39.833],[-123.908,39.863],[-123.929,39.909],[-124.023,40.001],[-123.544,40.002],[-123.545,39.977],[-122.934,39.978],[-122.913,39.936],[-122.92,39.917],[-122.95,39.908],[-122.96,39.845],[-122.938,39.798],[-122.938,39.748],[-122.913,39.748],[-122.913,39.709],[-122.893,39.709],[-122.89,39.529],[-123.063,39.504]]]}},{"type":"Feature","properties":{"name":"Merced"},"geometry":{"type":"Polygon","coordinates":[[[-121.106,37.232],[-120.964,37.346],[-120.994,37.388],[-120.984,37.399],[-120.388,37.633],[-120.28,37.458],[-120.283,37.424],[-120.188,37.301],[-120.178,37.262],[-120.093,37.223],[-120.054,37.182],[-120.29,37.153],[-120.341,37.125],[-120.477,37.096],[-120.595,37.002],[-120.591,36.953],[-120.656,36.953],[-120.919,36.74],[-121.142,36.837],[-121.189,36.913],[-121.235,36.927],[-121.212,36.957],[-121.246,36.983],[-121.233,36.999],[-121.245,37.032],[-121.208,37.062],[-121.243,37.093],[-121.217,37.123],[-121.227,37.135],[-121.106,37.232]]]}},{"type":"Feature","properties":{"name":"Modoc"},"geometry":{"type":"Polygon","coordinates":[[[-120.0,41.184],[-121.446,41.183],[-121.448,41.998],[-119.999,41.995],[-120.0,41.184]]]}},{"type":"Feature","properties":{"name":"Tulare"},"geometry":{"type":"Polygon","coordinates":[[[-119.475,36.401],[-119.529,36.401],[-119.528,36.488],[-119.573,36.489],[-119.466,36.575],[-119.305,36.574],[-119.305,36.661],[-118.985,36.657],[-118.982,36.742],[-118.351,36.741],[-118.335,36.705],[-118.364,36.688],[-118.329,36.667],[-118.338,36.655],[-118.321,36.627],[-118.275,36.597],[-118.289,36.591],[-118.291,36.559],[-118.239,36.521],[-118.235,36.494],[-118.25,36.482],[-118.212,36.437],[-118.138,36.418],[-118.16,36.394],[-118.153,36.38],[-118.1,36.346],[-118.128,36.28],[-118.102,36.209],[-118.062,36.174],[-118.067,36.092],[-118.05,36.077],[-118.034,36.009],[-118.004,35.984],[-118.018,35.961],[-117.983,35.927],[-117.981,35.867],[-118.005,35.863],[-118.008,35.789],[-119.538,35.79],[-119.529,36.27],[-119.475,36.269],[-119.475,36.401]]]}},{"type":"Feature","properties":{"name":"Imperial"},"geometry":{"type":"Polygon","coordinates":[[[-115.876,33.426],[-114.627,33.434],[-114.643,33.417],[-114.724,33.4],[-114.698,33.352],[-114.731,33.302],[-114.674,33.256],[-114.689,33.245],[-114.675,33.188],[-114.706,33.088],[-114.689,33.084],[-114.671,33.038],[-114.64,33.045],[-114.619,33.027],[-114.531,33.032],[-114.508,33.02],[-114.49,32.97],[-114.469,32.972],[-114.481,32.937],[-114.463,32.908],[-114.469,32.845],[-114.532,32.791],[-114.527,32.757],[-114.616,32.728],[-114.702,32.745],[-114.72,32.719],[-116.106,32.619],[-116.103,33.075],[-116.081,33.075],[-116.085,33.426],[-115.876,33.426]]]}},{"type":"Feature","properties":{"name":"Santa Cruz"},"geometry":{"type":"Polygon","coordinates":[[[-121.985,37.142],[-121.849,37.099],[-121.754,37.046],[-121.719,37.008],[-121.73,36.998],[-121.664,36.963],[-121.646,36.932],[-121.625,36.94],[-121.59,36.926],[-121.581,36.899],[-121.629,36.912],[-121.645,36.894],[-121.655,36.913],[-121.681,36.903],[-121.727,36.914],[-121.787,36.885],[-121.809,36.851],[-121.872,36.943],[-121.929,36.977],[-121.976,36.954],[-122.106,36.956],[-122.223,37.025],[-122.293,37.107],[-122.318,37.187],[-122.243,37.19],[-122.243,37.215],[-122.153,37.215],[-122.152,37.286],[-121.985,37.142]]]}},{"type":"Feature","properties":{"name":"Shasta"},"geometry":{"type":"Polygon","coordinates":[[[-122.001,41.183],[-121.332,41.184],[-121.332,40.905],[-121.32,40.906],[-121.328,40.445],[-121.565,40.446],[-121.589,40.432],[-121.686,40.453],[-121.735,40.436],[-121.851,40.443],[-121.9,40.421],[-122.01,40.427],[-122.194,40.391],[-122.199,40.378],[-122.226,40.389],[-122.31,40.371],[-122.445,40.373],[-122.52,40.394],[-122.651,40.328],[-122.732,40.348],[-122.749,40.366],[-122.872,40.349],[-122.92,40.307],[-122.977,40.315],[-123.065,40.287],[-123.069,40.332],[-122.997,40.396],[-122.999,40.418],[-122.903,40.445],[-122.846,40.505],[-122.793,40.515],[-122.768,40.553],[-122.744,40.554],[-122.723,40.575],[-122.699,40.569],[-122.71,40.631],[-122.736,40.637],[-122.727,40.649],[-122.752,40.69],[-122.722,40.695],[-122.707,40.725],[-122.717,40.747],[-122.658,40.788],[-122.666,40.826],[-122.601,40.901],[-122.613,40.921],[-122.599,40.976],[-122.528,41.014],[-122.522,41.052],[-122.54,41.073],[-122.457,41.097],[-122.446,41.156],[-122.498,41.183],[-122.001,41.183]]]}},{"type":"Feature","properties":{"name":"Stanislaus"},"geometry":{"type":"Polygon","coordinates":[[[-120.4,37.643],[-120.387,37.633],[-120.984,37.399],[-120.994,37.388],[-120.964,37.346],[-121.227,37.135],[-121.282,37.184],[-121.299,37.166],[-121.363,37.184],[-121.384,37.151],[-121.4,37.151],[-121.423,37.222],[-121.456,37.249],[-121.454,37.284],[-121.406,37.311],[-121.424,37.359],[-121.409,37.381],[-121.457,37.396],[-121.473,37.423],[-121.464,37.454],[-121.487,37.476],[-121.23,37.663],[-121.222,37.683],[-121.159,37.704],[-121.156,37.72],[-120.996,37.76],[-120.921,37.738],[-120.926,38.077],[-120.655,37.833],[-120.4,37.643]]]}},{"type":"Feature","properties":{"name":"Sutter"},"geometry":{"type":"Polygon","coordinates":[[[-121.908,39.304],[-121.63,39.306],[-121.622,39.276],[-121.636,39.246],[-121.614,39.215],[-121.624,39.196],[-121.598,39.128],[-121.603,39.1],[-121.587,39.098],[-121.61,39.058],[-121.599,39.012],[-121.581,39.003],[-121.581,38.924],[-121.543,38.972],[-121.415,38.996],[-121.414,38.926],[-121.469,38.926],[-121.47,38.752],[-121.484,38.751],[-121.484,38.735],[-121.603,38.736],[-121.593,38.763],[-121.624,38.785],[-121.673,38.743],[-121.67,38.759],[-121.693,38.768],[-121.691,38.795],[-121.723,38.804],[-121.73,38.859],[-121.815,38.877],[-121.791,38.905],[-121.835,38.924],[-121.841,38.955],[-121.795,38.996],[-121.826,39.011],[-121.838,39.063],[-121.889,39.072],[-121.912,39.124],[-121.938,39.133],[-121.917,39.147],[-121.943,39.185],[-121.928,39.199],[-121.948,39.24],[-121.908,39.304]]]}},{"type":"Feature","properties":{"name":"Tehama"},"geometry":{"type":"Polygon","coordinates":[[[-122.199,40.378],[-122.194,40.391],[-122.053,40.42],[-121.941,40.415],[-121.851,40.443],[-121.735,40.436],[-121.686,40.453],[-121.589,40.432],[-121.565,40.446],[-121.498,40.446],[-121.498,40.432],[-121.474,40.424],[-121.483,40.402],[-121.47,40.35],[-121.38,40.34],[-121.342,40.31],[-121.377,40.298],[-121.349,40.264],[-121.367,40.246],[-121.368,40.212],[-121.444,40.191],[-121.437,40.152],[-121.453,40.122],[-121.481,40.122],[-121.511,40.101],[-121.586,40.101],[-121.596,40.058],[-121.636,40.026],[-121.646,39.983],[-121.702,39.984],[-121.777,39.889],[-122.045,39.884],[-122.069,39.841],[-122.046,39.798],[-122.944,39.802],[-122.96,39.845],[-122.95,39.908],[-122.92,39.917],[-122.913,39.936],[-122.952,39.998],[-122.953,40.06],[-122.973,40.077],[-122.961,40.1],[-122.969,40.139],[-122.987,40.145],[-122.97,40.186],[-122.975,40.233],[-123.065,40.287],[-122.977,40.315],[-122.92,40.307],[-122.872,40.349],[-122.749,40.366],[-122.732,40.348],[-122.651,40.328],[-122.52,40.394],[-122.445,40.373],[-122.31,40.371],[-122.226,40.389],[-122.199,40.378]]]}},{"type":"Feature","properties":{"name":"Trinity"},"geometry":{"type":"Polygon","coordinates":[[[-123.624,40.929],[-123.592,40.927],[-123.56,40.95],[-123.485,40.915],[-123.448,40.944],[-123.453,40.964],[-123.406,41.014],[-123.407,41.031],[-123.423,41.058],[-123.458,41.068],[-123.464,41.093],[-123.436,41.102],[-123.433,41.162],[-123.408,41.18],[-123.381,41.151],[-123.354,41.163],[-123.295,41.141],[-123.245,41.078],[-123.109,41.075],[-123.055,41.047],[-123.037,41.004],[-122.98,41.014],[-122.935,40.992],[-122.914,40.998],[-122.898,41.031],[-122.923,41.072],[-122.971,41.09],[-122.952,41.151],[-122.963,41.179],[-122.936,41.177],[-122.894,41.203],[-122.802,41.203],[-122.777,41.231],[-122.725,41.247],[-122.712,41.275],[-122.657,41.291],[-122.646,41.324],[-122.591,41.326],[-122.57,41.368],[-122.479,41.32],[-122.513,41.284],[-122.508,41.245],[-122.523,41.214],[-122.491,41.176],[-122.454,41.166],[-122.449,41.118],[-122.457,41.097],[-122.54,41.073],[-122.522,41.052],[-122.528,41.014],[-122.599,40.976],[-122.613,40.921],[-122.601,40.901],[-122.666,40.826],[-122.658,40.788],[-122.717,40.747],[-122.707,40.725],[-122.722,40.695],[-122.752,40.69],[-122.727,40.649],[-122.736,40.637],[-122.71,40.631],[-122.699,40.569],[-122.723,40.575],[-122.744,40.554],[-122.768,40.553],[-122.793,40.515],[-122.846,40.505],[-122.903,40.445],[-122.999,40.418],[-122.997,40.396],[-123.069,40.332],[-123.051,40.268],[-122.978,40.241],[-122.97,40.186],[-122.987,40.145],[-122.969,40.139],[-122.961,40.1],[-122.973,40.077],[-122.949,40.05],[-122.956,40.02],[-122.934,39.978],[-123.545,39.977],[-123.544,40.739],[-123.569,40.82],[-123.56,40.83],[-123.624,40.929]]]}},{"type":"Feature","properties":{"name":"Kern"},"geometry":{"type":"Polygon","coordinates":[[[-119.997,35.439],[-119.997,35.469],[-120.087,35.527],[-120.086,35.615],[-120.194,35.614],[-120.194,35.789],[-117.633,35.797],[-117.634,35.71],[-117.652,35.71],[-117.652,35.681],[-117.616,35.681],[-117.635,35.622],[-117.632,34.822],[-118.854,34.818],[-118.855,34.803],[-118.887,34.802],[-118.881,34.791],[-118.977,34.791],[-118.977,34.812],[-119.244,34.814],[-119.244,34.858],[-119.278,34.857],[-119.277,34.88],[-119.382,34.88],[-119.382,34.901],[-119.473,34.901],[-119.473,35.077],[-119.491,35.077],[-119.491,35.092],[-119.561,35.088],[-119.554,35.18],[-119.667,35.175],[-119.667,35.263],[-119.809,35.264],[-119.809,35.351],[-119.88,35.351],[-119.88,35.439],[-119.997,35.439]]]}},{"type":"Feature","properties":{"name":"San Mateo"},"geometry":{"type":"MultiPolygon","coordinates":[[[[-122.503,37.708],[-122.393,37.708],[-122.377,37.657],[-122.396,37.639],[-122.355,37.615],[-122.378,37.606],[-122.252,37.568],[-122.225,37.547],[-122.244,37.508],[-122.211,37.507],[-122.196,37.524],[-122.166,37.499],[-122.13,37.503],[-122.116,37.466],[-122.191,37.431],[-122.201,37.372],[-122.187,37.316],[-122.152,37.286],[-122.153,37.215],[-122.243,37.215],[-122.243,37.19],[-122.318,37.187],[-122.293,37.107],[-122.339,37.121],[-122.365,37.17],[-122.405,37.196],[-122.418,37.249],[-122.4,37.355],[-122.458,37.491],[-122.499,37.5],[-122.518,37.524],[-122.52,37.595],[-122.504,37.598],[-122.494,37.637],[-122.503,37.708]]],[[[-122.199,37.538],[-122.214,37.51],[-122.244,37.509],[-122.224,37.543],[-122.199,37.538]]]]}},{"type":"Feature","properties":{"name":"Santa Barbara"},"geometry":{"type":"MultiPolygon","coordinates":[[[[-120.496,34.993],[-120.438,34.988],[-120.302,34.906],[-120.295,34.947],[-120.333,34.995],[-120.324,35.017],[-120.279,35.012],[-120.191,35.03],[-120.169,35.074],[-120.081,35.114],[-119.976,35.058],[-119.928,35.06],[-119.904,35.038],[-119.855,35.032],[-119.789,34.989],[-119.673,34.973],[-119.536,34.898],[-119.442,34.901],[-119.44,34.442],[-119.452,34.397],[-119.477,34.373],[-119.561,34.415],[-119.618,34.421],[-119.682,34.414],[-119.71,34.395],[-119.791,34.418],[-119.88,34.408],[-120.008,34.461],[-120.133,34.473],[-120.298,34.47],[-120.457,34.443],[-120.512,34.523],[-120.582,34.557],[-120.624,34.554],[-120.646,34.579],[-120.601,34.705],[-120.638,34.756],[-120.61,34.843],[-120.647,34.901],[-120.672,34.903],[-120.649,34.975],[-120.634,34.96],[-120.496,34.993]]],[[[-119.028,33.476],[-119.033,33.466],[-119.044,33.482],[-119.028,33.476]]],[[[-119.701,34.033],[-119.638,34.013],[-119.581,34.051],[-119.52,34.034],[-119.555,33.998],[-119.591,33.989],[-119.653,33.988],[-119.714,33.962],[-119.82,33.963],[-119.874,33.98],[-119.887,34.008],[-119.876,34.033],[-119.923,34.069],[-119.857,34.071],[-119.817,34.052],[-119.759,34.059],[-119.701,34.033]]],[[[-120.424,34.049],[-120.358,34.066],[-120.356,34.049],[-120.33,34.048],[-120.299,34.021],[-120.36,34.014],[-120.447,34.031],[-120.424,34.049]]],[[[-120.147,33.909],[-120.248,34.002],[-120.047,34.037],[-120.038,33.992],[-119.981,33.984],[-119.977,33.943],[-120.12,33.895],[-120.147,33.909]]]]}},{"type":"Feature","properties":{"name":"Santa Clara"},"geometry":{"type":"MultiPolygon","coordinates":[[[[-121.849,37.099],[-121.991,37.144],[-122.055,37.213],[-122.09,37.223],[-122.148,37.275],[-122.187,37.316],[-122.2,37.357],[-122.191,37.431],[-122.117,37.465],[-122.064,37.446],[-121.997,37.465],[-121.925,37.454],[-121.865,37.485],[-121.473,37.482],[-121.487,37.476],[-121.464,37.454],[-121.473,37.423],[-121.457,37.396],[-121.409,37.381],[-121.424,37.359],[-121.406,37.311],[-121.454,37.284],[-121.456,37.249],[-121.423,37.222],[-121.4,37.151],[-121.384,37.151],[-121.363,37.184],[-121.299,37.166],[-121.282,37.184],[-121.262,37.159],[-121.237,37.157],[-121.217,37.123],[-121.243,37.093],[-121.208,37.062],[-121.245,37.032],[-121.233,36.999],[-121.246,36.983],[-121.215,36.961],[-121.418,36.961],[-121.451,36.989],[-121.489,36.983],[-121.56,36.897],[-121.58,36.897],[-121.581,36.919],[-121.625,36.94],[-121.646,36.932],[-121.664,36.963],[-121.73,36.998],[-121.719,37.008],[-121.754,37.046],[-121.849,37.099]]],[[[-121.932,37.46],[-121.932,37.46]]],[[[-121.929,37.457],[-121.929,37.457]]]]}},{"type":"Feature","properties":{"name":"Ventura"},"geometry":{"type":"MultiPolygon","coordinates":[[[[-119.477,34.373],[-119.445,34.409],[-119.454,34.421],[-119.44,34.442],[-119.442,34.901],[-119.382,34.901],[-119.382,34.88],[-119.277,34.88],[-119.278,34.857],[-119.244,34.858],[-119.244,34.814],[-118.977,34.812],[-118.977,34.791],[-118.881,34.791],[-118.637,34.292],[-118.632,34.24],[-118.668,34.24],[-118.668,34.168],[-118.789,34.168],[-118.941,34.075],[-118.945,34.046],[-119.084,34.098],[-119.128,34.1],[-119.217,34.146],[-119.276,34.264],[-119.477,34.373]]],[[[-119.573,33.267],[-119.528,33.285],[-119.461,33.257],[-119.433,33.226],[-119.469,33.215],[-119.513,33.223],[-119.545,33.232],[-119.573,33.267]]]]}},{"type":"Feature","properties":{"name":"Yolo"},"geometry":{"type":"Polygon","coordinates":[[[-121.694,38.451],[-121.695,38.523],[-121.712,38.538],[-121.784,38.523],[-121.862,38.538],[-121.94,38.533],[-122.012,38.489],[-122.057,38.517],[-122.103,38.513],[-122.14,38.61],[-122.151,38.625],[-122.168,38.619],[-122.166,38.653],[-122.224,38.7],[-122.287,38.838],[-122.372,38.845],[-122.422,38.901],[-122.404,38.925],[-121.806,38.915],[-121.815,38.911],[-121.791,38.905],[-121.815,38.877],[-121.73,38.859],[-121.723,38.804],[-121.691,38.795],[-121.693,38.768],[-121.67,38.759],[-121.673,38.743],[-121.624,38.785],[-121.603,38.778],[-121.596,38.749],[-121.632,38.681],[-121.594,38.644],[-121.565,38.642],[-121.55,38.599],[-121.509,38.597],[-121.514,38.54],[-121.559,38.498],[-121.539,38.475],[-121.509,38.473],[-121.501,38.449],[-121.532,38.433],[-121.513,38.396],[-121.537,38.348],[-121.593,38.313],[-121.694,38.314],[-121.694,38.451]]]}},{"type":"Feature","properties":{"name":"Yuba"},"geometry":{"type":"Polygon","coordinates":[[[-121.206,39.31],[-121.221,39.283],[-121.267,39.272],[-121.259,39.256],[-121.28,39.231],[-121.28,39.035],[-121.304,39.052],[-121.415,38.996],[-121.543,38.972],[-121.581,38.924],[-121.581,39.003],[-121.599,39.012],[-121.61,39.058],[-121.587,39.098],[-121.603,39.1],[-121.598,39.128],[-121.624,39.196],[-121.614,39.215],[-121.636,39.246],[-121.617,39.312],[-121.563,39.305],[-121.407,39.34],[-121.373,39.365],[-121.305,39.52],[-121.159,39.52],[-121.141,39.562],[-121.107,39.567],[-121.107,39.585],[-121.08,39.585],[-121.009,39.639],[-121.024,39.559],[-121.058,39.538],[-121.034,39.515],[-121.022,39.392],[-121.128,39.38],[-121.157,39.333],[-121.181,39.338],[-121.206,39.31]]]}},{"type":"Feature","properties":{"name":"Lassen"},"geometry":{"type":"Polygon","coordinates":[[[-120.751,41.184],[-120.0,41.184],[-119.998,40.0],[-120.001,39.722],[-120.016,39.722],[-120.016,39.709],[-120.147,39.708],[-120.147,39.736],[-120.128,39.736],[-120.111,39.766],[-120.1,39.91],[-120.109,39.94],[-120.164,39.969],[-120.182,40.013],[-120.201,40.013],[-120.21,40.086],[-120.247,40.086],[-120.247,40.108],[-120.379,40.13],[-120.417,40.169],[-120.446,40.177],[-120.454,40.206],[-120.483,40.206],[-120.511,40.249],[-120.577,40.264],[-120.577,40.285],[-120.623,40.286],[-120.652,40.308],[-120.764,40.316],[-120.797,40.301],[-120.796,40.278],[-120.872,40.242],[-120.872,40.199],[-120.929,40.192],[-120.946,40.221],[-121.004,40.221],[-121.004,40.235],[-121.042,40.235],[-121.042,40.256],[-121.061,40.256],[-121.061,40.447],[-121.328,40.445],[-121.32,40.906],[-121.332,40.905],[-121.332,41.184],[-120.751,41.184]]]}},{"type":"Feature","properties":{"name":"Kings"},"geometry":{"type":"Polygon","coordinates":[[[-119.475,36.313],[-119.475,36.269],[-119.529,36.27],[-119.538,35.79],[-120.214,35.789],[-120.221,35.82],[-120.259,35.845],[-120.243,35.878],[-120.277,35.906],[-120.315,35.907],[-119.959,36.181],[-119.959,36.401],[-119.754,36.402],[-119.745,36.417],[-119.681,36.43],[-119.667,36.419],[-119.573,36.489],[-119.528,36.488],[-119.529,36.401],[-119.475,36.401],[-119.475,36.313]]]}},{"type":"Feature","properties":{"name":"Mono"},"geometry":{"type":"Polygon","coordinates":[[[-119.308,38.009],[-119.312,38.046],[-119.35,38.086],[-119.429,38.116],[-119.446,38.093],[-119.464,38.098],[-119.469,38.128],[-119.504,38.158],[-119.508,38.137],[-119.542,38.145],[-119.576,38.158],[-119.586,38.184],[-119.633,38.199],[-119.624,38.229],[-119.605,38.234],[-119.622,38.253],[-119.613,38.261],[-119.652,38.286],[-119.628,38.359],[-119.607,38.366],[-119.622,38.394],[-119.562,38.411],[-119.569,38.434],[-119.542,38.481],[-119.6,38.593],[-119.619,38.604],[-119.585,38.713],[-117.833,37.465],[-118.775,37.463],[-118.797,37.489],[-118.85,37.476],[-118.917,37.55],[-118.953,37.566],[-118.977,37.557],[-119.022,37.586],[-119.065,37.685],[-119.11,37.725],[-119.169,37.738],[-119.198,37.737],[-119.216,37.714],[-119.26,37.727],[-119.269,37.739],[-119.202,37.799],[-119.217,37.818],[-119.204,37.83],[-119.215,37.847],[-119.208,37.89],[-119.308,37.947],[-119.322,37.969],[-119.308,38.009]]]}},{"type":"Feature","properties":{"name":"Monterey"},"geometry":{"type":"Polygon","coordinates":[[[-121.809,36.851],[-121.745,36.909],[-121.654,36.912],[-121.622,36.846],[-121.506,36.759],[-121.483,36.765],[-121.462,36.744],[-121.452,36.724],[-121.485,36.713],[-121.469,36.687],[-121.342,36.64],[-121.318,36.61],[-121.329,36.555],[-121.295,36.527],[-121.309,36.499],[-121.239,36.505],[-121.225,36.472],[-121.041,36.324],[-121.04,36.271],[-121.027,36.275],[-121.027,36.26],[-120.992,36.27],[-120.985,36.29],[-120.953,36.275],[-120.921,36.311],[-120.841,36.277],[-120.761,36.203],[-120.713,36.199],[-120.718,36.259],[-120.751,36.304],[-120.702,36.286],[-120.627,36.203],[-120.668,36.161],[-120.649,36.108],[-120.601,36.102],[-120.592,36.072],[-120.433,35.969],[-120.36,35.964],[-120.324,35.909],[-120.263,35.896],[-120.243,35.878],[-120.259,35.845],[-120.221,35.82],[-120.214,35.789],[-121.348,35.795],[-121.462,35.886],[-121.502,35.999],[-121.573,36.023],[-121.676,36.163],[-121.814,36.234],[-121.9,36.307],[-121.906,36.398],[-121.952,36.517],[-121.925,36.527],[-121.933,36.56],[-121.976,36.577],[-121.936,36.637],[-121.876,36.603],[-121.824,36.659],[-121.791,36.797],[-121.781,36.811],[-121.736,36.806],[-121.741,36.825],[-121.79,36.808],[-121.809,36.851]]]}},{"type":"Feature","properties":{"name":"Napa"},"geometry":{"type":"Polygon","coordinates":[[[-122.57,38.53],[-122.632,38.57],[-122.646,38.599],[-122.628,38.623],[-122.627,38.668],[-122.464,38.705],[-122.398,38.804],[-122.379,38.802],[-122.373,38.817],[-122.404,38.856],[-122.395,38.864],[-122.349,38.836],[-122.29,38.839],[-122.224,38.7],[-122.166,38.653],[-122.168,38.619],[-122.151,38.625],[-122.128,38.584],[-122.103,38.513],[-122.125,38.424],[-122.073,38.361],[-122.065,38.316],[-122.206,38.316],[-122.188,38.272],[-122.217,38.262],[-122.197,38.258],[-122.194,38.214],[-122.215,38.18],[-122.195,38.155],[-122.407,38.156],[-122.366,38.161],[-122.35,38.201],[-122.367,38.247],[-122.405,38.281],[-122.395,38.305],[-122.405,38.322],[-122.495,38.424],[-122.483,38.453],[-122.53,38.47],[-122.544,38.52],[-122.57,38.53]]]}},{"type":"Feature","properties":{"name":"Nevada"},"geometry":{"type":"Polygon","coordinates":[[[-120.715,39.484],[-120.656,39.526],[-120.577,39.523],[-120.505,39.446],[-120.004,39.445],[-120.006,39.316],[-120.646,39.315],[-120.728,39.288],[-120.855,39.209],[-120.869,39.181],[-120.947,39.143],[-120.99,39.111],[-120.993,39.075],[-121.042,39.014],[-121.105,39.012],[-121.138,39.038],[-121.22,39.012],[-121.28,39.035],[-121.28,39.231],[-121.259,39.256],[-121.267,39.272],[-121.221,39.283],[-121.2,39.302],[-121.206,39.316],[-121.179,39.339],[-121.157,39.333],[-121.128,39.38],[-121.084,39.395],[-121.025,39.389],[-120.979,39.418],[-120.799,39.438],[-120.715,39.484]]]}},{"type":"Feature","properties":{"name":"Orange"},"geometry":{"type":"MultiPolygon","coordinates":[[[[-118.099,33.777],[-118.059,33.846],[-117.977,33.903],[-117.976,33.946],[-117.783,33.946],[-117.68,33.877],[-117.581,33.769],[-117.536,33.758],[-117.534,33.71],[-117.475,33.704],[-117.413,33.659],[-117.51,33.534],[-117.51,33.472],[-117.578,33.454],[-117.596,33.386],[-117.652,33.446],[-117.715,33.464],[-117.786,33.542],[-117.889,33.61],[-117.926,33.621],[-117.928,33.606],[-118.116,33.741],[-118.092,33.758],[-118.099,33.777]]],[[[-118.119,33.738],[-118.114,33.747],[-118.119,33.738]]]]}},{"type":"Feature","properties":{"name":"Placer"},"geometry":{"type":"Polygon","coordinates":[[[-121.065,39.008],[-121.008,39.052],[-120.989,39.112],[-120.703,39.3],[-120.646,39.315],[-120.006,39.316],[-120.002,39.067],[-120.144,39.067],[-120.165,39.038],[-120.24,39.024],[-120.435,39.028],[-120.494,38.942],[-120.563,38.914],[-120.654,38.948],[-120.723,38.999],[-120.812,39.0],[-120.859,38.952],[-120.937,38.964],[-120.939,38.936],[-121.04,38.916],[-121.06,38.884],[-121.058,38.848],[-121.089,38.827],[-121.135,38.712],[-121.484,38.735],[-121.484,38.751],[-121.47,38.752],[-121.469,38.926],[-121.414,38.926],[-121.406,39.006],[-121.304,39.052],[-121.22,39.012],[-121.138,39.038],[-121.105,39.012],[-121.065,39.008]]]}},{"type":"Feature","properties":{"name":"Plumas"},"geometry":{"type":"Polygon","coordinates":[[[-121.351,39.826],[-121.361,39.855],[-121.412,39.871],[-121.411,39.9],[-121.43,39.9],[-121.43,39.915],[-121.411,39.915],[-121.419,40.016],[-121.367,40.086],[-121.376,40.109],[-121.405,40.116],[-121.405,40.152],[-121.442,40.152],[-121.445,40.178],[-121.439,40.195],[-121.407,40.191],[-121.368,40.212],[-121.367,40.246],[-121.349,40.264],[-121.377,40.298],[-121.342,40.31],[-121.38,40.34],[-121.47,40.35],[-121.483,40.402],[-121.474,40.424],[-121.498,40.432],[-121.498,40.446],[-121.061,40.447],[-121.061,40.256],[-121.042,40.256],[-121.042,40.235],[-121.004,40.235],[-121.004,40.221],[-120.946,40.221],[-120.929,40.192],[-120.872,40.199],[-120.872,40.242],[-120.796,40.278],[-120.797,40.301],[-120.764,40.316],[-120.577,40.285],[-120.577,40.264],[-120.511,40.249],[-120.483,40.206],[-120.454,40.206],[-120.446,40.177],[-120.417,40.169],[-120.379,40.13],[-120.247,40.108],[-120.247,40.086],[-120.21,40.086],[-120.201,40.013],[-120.182,40.013],[-120.164,39.969],[-120.109,39.94],[-120.1,39.91],[-120.111,39.766],[-120.128,39.736],[-120.147,39.736],[-120.147,39.708],[-120.654,39.707],[-120.681,39.677],[-120.75,39.72],[-120.792,39.71],[-120.813,39.742],[-120.873,39.776],[-120.934,39.739],[-120.949,39.673],[-121.077,39.597],[-121.098,39.621],[-121.137,39.628],[-121.136,39.657],[-121.209,39.7],[-121.211,39.726],[-121.229,39.726],[-121.23,39.74],[-121.248,39.74],[-121.332,39.811],[-121.332,39.826],[-121.351,39.826]]]}},{"type":"Feature","properties":{"name":"Riverside"},"geometry":{"type":"Polygon","coordinates":[[[-117.674,33.871],[-117.673,33.887],[-117.655,33.889],[-117.655,33.925],[-117.611,33.925],[-117.61,33.972],[-117.558,33.988],[-117.558,34.033],[-117.375,34.034],[-117.375,34.019],[-117.225,34.019],[-117.225,34.004],[-116.929,34.005],[-116.93,34.034],[-115.316,34.034],[-115.316,34.078],[-114.435,34.08],[-114.438,34.023],[-114.536,33.934],[-114.508,33.902],[-114.525,33.896],[-114.504,33.866],[-114.526,33.86],[-114.528,33.815],[-114.494,33.711],[-114.53,33.679],[-114.522,33.611],[-114.541,33.583],[-114.525,33.552],[-114.589,33.502],[-114.627,33.434],[-117.241,33.432],[-117.242,33.449],[-117.371,33.491],[-117.364,33.505],[-117.51,33.505],[-117.51,33.534],[-117.413,33.659],[-117.475,33.704],[-117.534,33.71],[-117.536,33.758],[-117.581,33.769],[-117.674,33.871]]]}},{"type":"Feature","properties":{"name":"Sacramento"},"geometry":{"type":"MultiPolygon","coordinates":[[[[-121.027,38.3],[-121.067,38.299],[-121.173,38.255],[-121.268,38.252],[-121.345,38.228],[-121.398,38.227],[-121.431,38.255],[-121.472,38.26],[-121.529,38.194],[-121.536,38.152],[-121.584,38.12],[-121.57,38.097],[-121.604,38.109],[-121.636,38.09],[-121.68,38.092],[-121.682,38.115],[-121.707,38.112],[-121.686,38.16],[-121.614,38.198],[-121.605,38.297],[-121.59,38.323],[-121.522,38.36],[-121.513,38.396],[-121.532,38.433],[-121.501,38.449],[-121.509,38.473],[-121.539,38.475],[-121.559,38.498],[-121.514,38.54],[-121.509,38.597],[-121.55,38.599],[-121.565,38.642],[-121.594,38.644],[-121.628,38.675],[-121.63,38.698],[-121.603,38.736],[-121.133,38.705],[-121.119,38.717],[-121.027,38.504],[-121.027,38.3]]],[[[-121.786,38.05],[-121.687,38.101],[-121.683,38.065],[-121.697,38.053],[-121.745,38.03],[-121.773,38.032],[-121.786,38.05]]],[[[-121.817,38.043],[-121.833,38.042],[-121.834,38.057],[-121.804,38.051],[-121.817,38.043]]],[[[-121.829,38.039],[-121.787,38.026],[-121.829,38.039]]]]}},{"type":"Feature","properties":{"name":"San Benito"},"geometry":{"type":"Polygon","coordinates":[[[-121.485,36.764],[-121.506,36.759],[-121.622,36.846],[-121.643,36.874],[-121.629,36.912],[-121.56,36.897],[-121.489,36.983],[-121.451,36.989],[-121.418,36.961],[-121.215,36.961],[-121.235,36.927],[-121.189,36.913],[-121.142,36.837],[-120.934,36.752],[-120.597,36.488],[-120.597,36.328],[-120.666,36.311],[-120.683,36.294],[-120.679,36.267],[-120.747,36.31],[-120.706,36.228],[-120.713,36.199],[-120.761,36.203],[-120.841,36.277],[-120.921,36.311],[-120.953,36.275],[-120.985,36.29],[-120.992,36.27],[-121.027,36.26],[-121.027,36.275],[-121.04,36.271],[-121.041,36.324],[-121.225,36.472],[-121.239,36.505],[-121.309,36.499],[-121.297,36.532],[-121.334,36.574],[-121.318,36.61],[-121.36,36.653],[-121.408,36.657],[-121.415,36.672],[-121.469,36.687],[-121.485,36.713],[-121.452,36.724],[-121.485,36.764]]]}},{"type":"Feature","properties":{"name":"San Bernardino"},"geometry":{"type":"Polygon","coordinates":[[[-117.66,34.453],[-117.667,34.823],[-117.632,34.822],[-117.635,35.622],[-117.616,35.681],[-117.652,35.681],[-117.652,35.71],[-117.634,35.71],[-117.633,35.797],[-115.736,35.794],[-115.736,35.809],[-115.648,35.809],[-114.633,35.002],[-114.635,34.875],[-114.582,34.828],[-114.553,34.767],[-114.472,34.713],[-114.424,34.61],[-114.436,34.594],[-114.381,34.53],[-114.387,34.458],[-114.34,34.451],[-114.226,34.366],[-114.177,34.349],[-114.138,34.303],[-114.131,34.263],[-114.165,34.26],[-114.23,34.187],[-114.416,34.108],[-114.435,34.08],[-115.316,34.078],[-115.316,34.034],[-116.93,34.034],[-116.929,34.005],[-117.225,34.004],[-117.225,34.019],[-117.375,34.019],[-117.375,34.034],[-117.558,34.033],[-117.558,33.988],[-117.61,33.972],[-117.611,33.925],[-117.655,33.925],[-117.655,33.889],[-117.673,33.887],[-117.674,33.871],[-117.794,33.954],[-117.803,33.976],[-117.785,34.005],[-117.767,34.005],[-117.768,34.024],[-117.73,34.021],[-117.679,34.162],[-117.646,34.289],[-117.66,34.453]]]}},{"type":"Feature","properties":{"name":"San Joaquin"},"geometry":{"type":"MultiPolygon","coordinates":[[[[-121.557,37.816],[-121.537,37.845],[-121.552,37.86],[-121.578,37.858],[-121.556,37.924],[-121.582,37.986],[-121.554,38.009],[-121.58,38.06],[-121.568,38.072],[-121.54,38.056],[-121.52,38.021],[-121.47,38.035],[-121.547,38.063],[-121.584,38.12],[-121.536,38.152],[-121.529,38.194],[-121.48,38.254],[-121.431,38.255],[-121.398,38.227],[-121.345,38.228],[-121.268,38.252],[-121.173,38.255],[-121.067,38.299],[-121.027,38.3],[-120.926,38.077],[-120.921,37.738],[-120.996,37.76],[-121.156,37.72],[-121.159,37.704],[-121.222,37.683],[-121.23,37.663],[-121.245,37.664],[-121.472,37.482],[-121.504,37.526],[-121.557,37.543],[-121.557,37.816]]],[[[-121.501,38.038],[-121.515,38.023],[-121.525,38.043],[-121.508,38.051],[-121.501,38.038]]]]}},{"type":"Feature","properties":{"name":"San Luis Obispo"},"geometry":{"type":"Polygon","coordinates":[[[-121.348,35.795],[-120.194,35.789],[-120.194,35.614],[-120.086,35.615],[-120.087,35.527],[-119.997,35.469],[-119.997,35.439],[-119.88,35.439],[-119.88,35.351],[-119.809,35.351],[-119.809,35.264],[-119.667,35.263],[-119.667,35.175],[-119.554,35.18],[-119.561,35.088],[-119.491,35.092],[-119.491,35.077],[-119.473,35.077],[-119.473,34.901],[-119.536,34.898],[-119.673,34.973],[-119.789,34.989],[-119.855,35.032],[-119.904,35.038],[-119.928,35.06],[-119.976,35.058],[-120.081,35.114],[-120.169,35.074],[-120.191,35.03],[-120.279,35.012],[-120.324,35.017],[-120.333,34.995],[-120.295,34.947],[-120.302,34.906],[-120.438,34.988],[-120.496,34.993],[-120.634,34.96],[-120.649,34.975],[-120.632,35.11],[-120.651,35.148],[-120.738,35.179],[-120.757,35.16],[-120.778,35.168],[-120.854,35.206],[-120.895,35.246],[-120.865,35.334],[-120.842,35.322],[-120.841,35.339],[-120.885,35.43],[-120.904,35.448],[-121.003,35.46],[-121.093,35.54],[-121.164,35.634],[-121.285,35.667],[-121.348,35.795]]]}}]}